{"type":"FeatureCollection","license":"CC BY-SA 4.0. Derived from the GEM Global Active Faults Database (Styron and Pagani 2020), Philippines catalogue; lines simplified.","features":[{"type":"Feature","properties":{"n":"Colosas Fault","slip":"Sinistral"},"geometry":{"type":"MultiLineString","coordinates":[[[125.57053,7.42785],[125.51403,7.52689]]]}},{"type":"Feature","properties":{"n":"Colosas Fault","slip":""},"geometry":{"type":"MultiLineString","coordinates":[[[125.57053,7.42785],[125.51403,7.52689]]]}},{"type":"Feature","properties":{"n":"Dacudao Fault","slip":"Sinistral"},"geometry":{"type":"MultiLineString","coordinates":[[[125.43461,7.24751],[125.43475,7.24289],[125.43699,7.23765],[125.43961,7.23482],[125.44098,7.2263],[125.44754,7.22476],[125.45417,7.21726],[125.47079,7.20121],[125.47494,7.13683],[125.50406,7.09083],[125.53796,7.06823],[125.54394,7.0576]]]}},{"type":"Feature","properties":{"n":"Central Cebu Fault","slip":"Reverse"},"geometry":{"type":"MultiLineString","coordinates":[[[123.95382,10.52186],[123.95131,10.51919],[123.94533,10.50791],[123.94329,10.50266],[123.9321,10.48355],[123.92791,10.4779],[123.92042,10.46321],[123.91226,10.42663],[123.907,10.41703],[123.90074,10.39798],[123.90024,10.39275],[123.89467,10.37704],[123.86877,10.33374],[123.85154,10.32079],[123.84595,10.31515],[123.83275,10.3077],[123.81642,10.30352],[123.81032,10.29903],[123.79887,10.29285],[123.73388,10.26733],[123.70595,10.24612]]]}},{"type":"Feature","properties":{"n":"East Negros Fault North","slip":"Reverse"},"geometry":{"type":"MultiLineString","coordinates":[[[123.4964,10.72408],[123.49444,10.72041],[123.49476,10.71638],[123.49653,10.71325],[123.49774,10.7081],[123.49623,10.69972],[123.49577,10.69054],[123.49156,10.68058],[123.48898,10.67057],[123.4891,10.63438],[123.48731,10.63237],[123.48452,10.62559],[123.47366,10.61361],[123.45972,10.60446],[123.39197,10.58539],[123.39301,10.58263],[123.39258,10.57761],[123.39327,10.57579],[123.39339,10.56834],[123.39562,10.56474],[123.3965,10.559],[123.39852,10.55457],[123.39714,10.54972],[123.39757,10.54652],[123.39715,10.5449],[123.39452,10.53953],[123.39184,10.53064],[123.39085,10.52396],[123.39166,10.5192],[123.39098,10.5131],[123.38623,10.50093],[123.38591,10.49806],[123.38314,10.49089],[123.38336,10.48982],[123.38051,10.48678],[123.37622,10.47915],[123.37453,10.47815],[123.36401,10.46655],[123.36097,10.46421],[123.34389,10.4114],[123.33756,10.40583],[123.32901,10.39141],[123.32589,10.38868],[123.32356,10.38185],[123.32269,10.38082],[123.31997,10.38012],[123.31651,10.37345],[123.3133,10.37124],[123.31151,10.36775],[123.30601,10.36106],[123.3034,10.35467],[123.29947,10.34935],[123.29847,10.34544],[123.27987,10.32205],[123.27554,10.31272],[123.27362,10.30555],[123.26599,10.29215],[123.26339,10.29218],[123.26241,10.29143],[123.25682,10.28389]]]}},{"type":"Feature","properties":{"n":"General Nakar West","slip":"Dextral-Normal"},"geometry":{"type":"MultiLineString","coordinates":[[[121.38128,15.37055],[121.34981,15.11428],[121.3541,14.9428],[121.39018,14.84887],[121.38842,14.7641],[121.40048,14.70503]]]}},{"type":"Feature","properties":{"n":"Guinayangan Fault East","slip":"Sinistral"},"geometry":{"type":"MultiLineString","coordinates":[[[122.25343,14.02672],[122.34089,13.93873],[122.51367,13.79315]]]}},{"type":"Feature","properties":{"n":"East Bohol Fault","slip":"Reverse"},"geometry":{"type":"MultiLineString","coordinates":[[[124.37581,9.85234],[124.37134,9.84852],[124.36268,9.84264],[124.3491,9.82886],[124.34313,9.82363],[124.3397,9.81931],[124.32268,9.80503],[124.31792,9.8028],[124.31478,9.80031],[124.30459,9.79547],[124.29001,9.78495],[124.28057,9.77945],[124.27339,9.77421],[124.25379,9.75531],[124.24814,9.7485],[124.24108,9.73505],[124.22692,9.71577],[124.19746,9.69324],[124.18762,9.6819],[124.17414,9.67331],[124.16184,9.66399],[124.14279,9.65207],[124.13535,9.64856],[124.11217,9.63446],[124.1038,9.63093],[124.09138,9.62386],[124.0628,9.60449],[124.05042,9.59866],[124.03659,9.59333]]]}},{"type":"Feature","properties":{"n":"General Nakar East","slip":"Sinistral"},"geometry":{"type":"MultiLineString","coordinates":[[[121.36688,15.19095],[121.3998,15.14207],[121.45166,15.0912],[121.49156,15.02837],[121.49251,14.87369],[121.49804,14.82605],[121.53461,14.74706],[121.53744,14.67029]]]}},{"type":"Feature","properties":{"n":"New Carmen Fault","slip":"Sinistral-Reverse"},"geometry":{"type":"MultiLineString","coordinates":[[[125.52805,7.20352],[125.53771,7.18635],[125.54492,7.15977],[125.54495,7.13821],[125.54799,7.11254],[125.55391,7.1008]]]}},{"type":"Feature","properties":{"n":"Pangyan Biao Escuela Fault","slip":"Sinistral-Reverse"},"geometry":{"type":"MultiLineString","coordinates":[[[125.53302,7.12217],[125.52474,7.13062],[125.50986,7.15155],[125.50978,7.15512],[125.50492,7.17254],[125.50007,7.1837],[125.50135,7.19427],[125.49228,7.20524],[125.48504,7.22675],[125.48497,7.23482],[125.47953,7.24822],[125.47747,7.28028],[125.47747,7.32814],[125.4788,7.35008],[125.47149,7.40392]]]}},{"type":"Feature","properties":{"n":"Guinayangan Fault West","slip":"Sinistral"},"geometry":{"type":"MultiLineString","coordinates":[[[122.2104,13.8854],[122.25417,13.84219],[122.32916,13.78942],[122.38762,13.72749],[122.46095,13.66917]]]}},{"type":"Feature","properties":{"n":"Lacson Fault","slip":"Sinistral"},"geometry":{"type":"MultiLineString","coordinates":[[[125.44126,7.22473],[125.44254,7.22119],[125.44506,7.21799],[125.44706,7.20948],[125.44724,7.20125],[125.44823,7.19434],[125.44768,7.18842],[125.45081,7.18209],[125.45827,7.17065],[125.46173,7.16355],[125.46163,7.15913],[125.4652,7.14278],[125.48146,7.10413],[125.49001,7.07585],[125.48925,7.06026],[125.4911,7.0443],[125.48634,7.00495],[125.47427,6.95675],[125.47082,6.93595]]]}},{"type":"Feature","properties":{"n":"Southern Negros Fault Sytem West","slip":"Reverse"},"geometry":{"type":"MultiLineString","coordinates":[[[123.00759,9.10796],[123.00776,9.1215],[123.00987,9.12849],[123.00985,9.13493],[123.01271,9.13757],[123.01349,9.13908],[123.01321,9.14209],[123.01522,9.1431],[123.01587,9.14693],[123.01734,9.1488],[123.0187,9.15292],[123.01848,9.15708],[123.01732,9.16181],[123.0174,9.17169],[123.01676,9.17364],[123.01436,9.17661],[123.01377,9.1798],[123.01577,9.18364],[123.01713,9.19128],[123.01871,9.1941],[123.01924,9.19856],[123.0187,9.20132],[123.01905,9.20647],[123.01706,9.21772],[123.01217,9.22735],[123.01005,9.23018],[123.00738,9.23874],[123.00662,9.24834],[123.00476,9.25422],[123.00373,9.26131],[123.00194,9.28272]]]}},{"type":"Feature","properties":{"n":"Tabuan River Fault","slip":"Normal"},"geometry":{"type":"MultiLineString","coordinates":[[[121.63284,17.96521],[121.66923,17.98352],[121.726,17.9911],[121.8141,18.04004],[121.93262,18.0448],[122.02771,18.06569],[122.09936,18.0975],[122.1819,18.1193]]]}},{"type":"Feature","properties":{"n":"South Cebu Fault","slip":"Reverse"},"geometry":{"type":"MultiLineString","coordinates":[[[123.60561,10.13504],[123.59867,10.12563],[123.59471,10.11327],[123.59279,10.09861],[123.58771,10.09138],[123.58355,10.08868],[123.57502,10.06794],[123.56085,10.0412],[123.5578,10.03825],[123.55525,10.02476],[123.5558,10.00922],[123.54294,9.99137],[123.51644,9.97055],[123.50239,9.95607],[123.49326,9.93459],[123.48939,9.91532],[123.47999,9.90338],[123.47,9.88219],[123.45866,9.86214],[123.45676,9.84703],[123.45632,9.78396],[123.44672,9.75544],[123.43804,9.72283],[123.43861,9.71639],[123.42821,9.6978],[123.4238,9.66931]]]}},{"type":"Feature","properties":{"n":"Southern Negros Fault System East","slip":""},"geometry":{"type":"MultiLineString","coordinates":[[[123.16121,9.13553],[123.15359,9.12913],[123.14442,9.1236],[123.13738,9.10661],[123.13517,9.10546],[123.13329,9.10302],[123.12207,9.09936],[123.11064,9.09456]]]}},{"type":"Feature","properties":{"n":"Dilasag-Casiguran","slip":"Reverse"},"geometry":{"type":"MultiLineString","coordinates":[[[122.21412,16.40514],[122.20336,16.39525],[122.17641,16.36187],[122.16209,16.33075],[122.15292,16.31359],[122.15113,16.31194],[122.14934,16.30797],[122.1414,16.29735],[122.13837,16.29486],[122.12514,16.27927]]]}},{"type":"Feature","properties":{"n":"Dinalungan-Dipaculao","slip":"Reverse"},"geometry":{"type":"MultiLineString","coordinates":[[[121.93238,16.10535],[121.85841,16.05649],[121.76591,15.98958],[121.71274,15.94596],[121.6589,15.90951]]]}},{"type":"Feature","properties":{"n":"Palanan-Dinapigue","slip":"Reverse"},"geometry":{"type":"MultiLineString","coordinates":[[[122.56694,17.22388],[122.53199,17.11359],[122.5139,17.02966],[122.47316,16.91315],[122.42108,16.79612],[122.38463,16.72512],[122.2787,16.52882]]]}},{"type":"Feature","properties":{"n":"Dinapigue North","slip":"Reverse"},"geometry":{"type":"MultiLineString","coordinates":[[[122.27697,16.80062],[122.28599,16.76841],[122.2882,16.74784],[122.28518,16.72803],[122.28621,16.71154],[122.28409,16.67955],[122.28475,16.66677],[122.27566,16.52414]]]}},{"type":"Feature","properties":{"n":"West Compostela Valley Fault","slip":"Sinistral"},"geometry":{"type":"MultiLineString","coordinates":[[[125.91785,7.99087],[125.90456,7.68776],[125.91386,7.50296]]]}},{"type":"Feature","properties":{"n":"Tangbulan Fault","slip":"Sinistral-Reverse"},"geometry":{"type":"MultiLineString","coordinates":[[[125.3016,6.61826],[125.37435,6.56848],[125.42838,6.52737],[125.49334,6.50033],[125.54946,6.48628],[125.58143,6.46355],[125.62551,6.43651]]]}},{"type":"Feature","properties":{"n":"Tubao Fault","slip":"Reverse-Dextral"},"geometry":{"type":"MultiLineString","coordinates":[[[120.53989,16.95204],[120.53723,16.73135],[120.53191,16.46015]]]}},{"type":"Feature","properties":{"n":"West Ilocos Fault System FW","slip":""},"geometry":{"type":"MultiLineString","coordinates":[[[120.70845,18.52725],[120.66501,18.46732],[120.61718,18.37763]]]}},{"type":"Feature","properties":{"n":"West Panay Fault","slip":"Sinistral-Reverse"},"geometry":{"type":"MultiLineString","coordinates":[[[122.13018,11.8147],[122.13498,11.80111],[122.1395,11.79313],[122.14496,11.78154],[122.1448,11.78055],[122.1526,11.759],[122.17206,11.71037],[122.18779,11.67426],[122.20206,11.64362],[122.21528,11.57824],[122.21949,11.55094],[122.23075,11.50423],[122.26269,11.32182],[122.294,11.18818],[122.30483,11.12316],[122.3589,11.02796],[122.34663,10.96356],[122.3313,10.90913],[122.29986,10.85393],[122.26843,10.8133],[122.24703,10.78427],[122.19874,10.72448],[122.15419,10.6661],[122.11508,10.61933]]]}},{"type":"Feature","properties":{"n":"West Ilocos Fault System E","slip":"Sinistral-Reverse"},"geometry":{"type":"MultiLineString","coordinates":[[[120.81106,18.44714],[120.80919,18.41753],[120.79022,18.34205],[120.79551,18.26772],[120.78841,18.21117],[120.81013,18.14068],[120.80696,18.07759],[120.79423,18.03858],[120.76309,18.02425],[120.74099,17.98052],[120.71663,17.94723],[120.71305,17.92907],[120.69497,17.91087],[120.63563,17.88789]]]}},{"type":"Feature","properties":{"n":"West Ilocos Fault System W","slip":"Reverse"},"geometry":{"type":"MultiLineString","coordinates":[[[120.71504,18.4949],[120.71748,18.48336],[120.72028,18.47464],[120.72553,18.46519],[120.72538,18.44405],[120.7279,18.43406],[120.72899,18.42452],[120.72868,18.41783],[120.72918,18.41423],[120.72657,18.40755],[120.71574,18.39847],[120.71591,18.39131],[120.71472,18.37372],[120.70997,18.35363],[120.70776,18.33619],[120.70087,18.31265],[120.6983,18.29609],[120.68451,18.27794],[120.68224,18.26447],[120.68052,18.24325],[120.6754,18.22676],[120.67243,18.18227],[120.6684,18.17357],[120.66807,18.16547],[120.66327,18.13964],[120.6317,18.08149],[120.62075,18.04287],[120.61462,18.03006],[120.61121,18.02567],[120.59952,18.01605],[120.59403,18.00769],[120.58801,17.99583],[120.5746,17.97641],[120.56718,17.97101],[120.55292,17.94501],[120.54509,17.93791],[120.53566,17.91707],[120.52411,17.91048],[120.51963,17.89813],[120.51372,17.87833],[120.51294,17.87152],[120.51239,17.85517],[120.50907,17.82434],[120.50656,17.78445],[120.50004,17.72709],[120.49909,17.70678],[120.49658,17.68996],[120.4939,17.68346],[120.49151,17.67507],[120.48769,17.65486],[120.48271,17.63899],[120.47615,17.62211],[120.46959,17.58758],[120.46336,17.56424],[120.45765,17.55196],[120.45817,17.54976],[120.45703,17.54027],[120.44893,17.49775],[120.44104,17.47002],[120.43376,17.45081]]]}},{"type":"Feature","properties":{"n":"Zamboanga Fault System","slip":"Dextral"},"geometry":{"type":"MultiLineString","coordinates":[[[122.55583,7.94878],[122.49663,7.91195],[122.36073,7.81336],[122.31364,7.77763],[122.27965,7.75705]]]}},{"type":"Feature","properties":{"n":"East Negros Fault South","slip":"Reverse"},"geometry":{"type":"MultiLineString","coordinates":[[[123.21222,10.14605],[123.21243,10.13825],[123.2084,10.12265],[123.20489,10.11565],[123.20256,10.10881],[123.20165,10.10412],[123.20179,10.09949],[123.1987,10.0865],[123.19884,10.08075],[123.20318,10.07819],[123.20051,10.0734],[123.19586,10.06773],[123.18927,10.05593],[123.18877,10.05173],[123.1848,10.04029],[123.18424,10.03623],[123.17963,10.01979],[123.17697,10.01585],[123.17554,10.01032],[123.17523,10.0046],[123.17405,9.99932],[123.17541,9.9806],[123.17498,9.96927],[123.1735,9.96308],[123.17377,9.96178],[123.17283,9.96022],[123.17268,9.95437],[123.17029,9.94412],[123.16763,9.93753],[123.16768,9.93553],[123.14885,9.9254],[123.14975,9.91954],[123.14935,9.90926],[123.14638,9.90293],[123.14475,9.90101],[123.14024,9.89207],[123.13601,9.88554],[123.13516,9.88302],[123.13466,9.87621],[123.13174,9.86441]]]}},{"type":"Feature","properties":{"n":"West Mindanao Extension Mindanao Fault","slip":"Sinistral"},"geometry":{"type":"MultiLineString","coordinates":[[[122.67591,8.76639],[122.79865,8.49316],[122.95881,8.30837],[123.02604,8.26401],[123.10314,8.22614],[123.25521,8.13418],[123.76547,7.86284],[123.85854,7.81921],[124.07109,7.76616],[124.22612,7.76549],[124.46272,7.7729],[124.71041,7.77206]]]}},{"type":"Feature","properties":{"n":"West Valley Fault","slip":"Dextral-Normal"},"geometry":{"type":"MultiLineString","coordinates":[[[121.20547,15.02207],[121.19505,14.9669],[121.19192,14.95622],[121.18513,14.92647],[121.1799,14.91115],[121.17422,14.88898],[121.16828,14.88238],[121.16233,14.86696],[121.15533,14.85167],[121.14789,14.82916],[121.14415,14.80442],[121.14258,14.80116],[121.14161,14.79579],[121.13796,14.75924],[121.09073,14.65617],[121.08062,14.63224],[121.06697,14.56441],[121.0653,14.55802],[121.06003,14.54615],[121.05616,14.52294],[121.05453,14.51656],[121.05429,14.5038],[121.04813,14.43326],[121.04903,14.42647],[121.04772,14.40472],[121.0447,14.38584],[121.04114,14.37378],[121.04003,14.36344],[121.03776,14.35909],[121.0368,14.30239],[121.03831,14.29113],[121.04029,14.28559],[121.04095,14.27609],[121.03978,14.27318],[121.03963,14.26234],[121.0372,14.25662],[121.03581,14.25031],[121.04718,14.22552],[121.04381,14.20517],[121.04011,14.19307],[121.04043,14.18696],[121.04166,14.18425],[121.04308,14.18344],[121.04876,14.17427],[121.05427,14.16701]]]}},{"type":"Feature","properties":{"n":"Virac","slip":"Reverse"},"geometry":{"type":"MultiLineString","coordinates":[[[124.27914,13.95672],[124.26149,13.93812],[124.25278,13.9301],[124.24698,13.92707],[124.23522,13.91393],[124.21665,13.89899],[124.1967,13.89145],[124.19253,13.89195],[124.18425,13.88948],[124.18162,13.88962],[124.16812,13.88395],[124.13642,13.85412],[124.14054,13.8266],[124.13708,13.81001],[124.13853,13.79957],[124.13771,13.787],[124.14217,13.77449],[124.14696,13.76853],[124.15327,13.75449],[124.15708,13.74987],[124.16043,13.74281],[124.16059,13.74087],[124.16541,13.73398],[124.17075,13.72104],[124.13072,13.60391]]]}},{"type":"Feature","properties":{"n":"Central Cebu Fault NorthWest","slip":""},"geometry":{"type":"MultiLineString","coordinates":[[[123.86553,10.49561],[123.85986,10.49019],[123.85582,10.48367],[123.83923,10.46274],[123.81438,10.44332],[123.8044,10.43635],[123.78826,10.41759],[123.7715,10.40519],[123.75738,10.39939],[123.73578,10.3842]]]}},{"type":"Feature","properties":{"n":"Malaybalay-Maramag","slip":"Dextral"},"geometry":{"type":"MultiLineString","coordinates":[[[125.11957,8.1683],[125.09784,8.0444],[125.07206,7.90394],[125.02369,7.81834],[124.98676,7.76587],[124.96149,7.73627]]]}},{"type":"Feature","properties":{"n":"Guimaras","slip":"Reverse"},"geometry":{"type":"MultiLineString","coordinates":[[[122.61494,10.64812],[122.60433,10.63725],[122.59555,10.62514],[122.5906,10.61953],[122.58305,10.61655],[122.57905,10.60018],[122.57625,10.59464],[122.57578,10.59222],[122.57025,10.58518],[122.56712,10.57823],[122.55825,10.57043],[122.55108,10.56203],[122.54666,10.54815],[122.54486,10.53422],[122.54368,10.51685],[122.54351,10.50141]]]}},{"type":"Feature","properties":{"n":"Central Cebu Fault SouthWest","slip":""},"geometry":{"type":"MultiLineString","coordinates":[[[123.77072,10.32477],[123.76166,10.31708],[123.74418,10.30741],[123.73759,10.30288],[123.71386,10.28379],[123.71162,10.28057],[123.68783,10.2733],[123.68406,10.27058]]]}},{"type":"Feature","properties":{"n":"Zamboanga Fault System West","slip":"Reverse"},"geometry":{"type":"MultiLineString","coordinates":[[[122.14189,7.59622],[122.15568,7.53159],[122.07115,7.14868],[122.02147,7.07452]]]}},{"type":"Feature","properties":{"n":"East Valley Fault","slip":"Normal"},"geometry":{"type":"MultiLineString","coordinates":[[[121.20484,14.79022],[121.19929,14.78375],[121.1927,14.77294],[121.18714,14.76582],[121.18285,14.76141],[121.18055,14.75736],[121.17707,14.75378],[121.17417,14.7466],[121.17135,14.74213],[121.16885,14.73969],[121.16607,14.73475],[121.1639,14.73282],[121.15502,14.71808],[121.14862,14.71064],[121.14428,14.70051],[121.14235,14.6936],[121.13571,14.68966],[121.13167,14.68638],[121.12975,14.68398]]]}},{"type":"Feature","properties":{"n":"Tamugan Fault","slip":"Sinistral"},"geometry":{"type":"MultiLineString","coordinates":[[[125.38663,7.25865],[125.39324,7.24993],[125.39598,7.23875],[125.39757,7.2247],[125.40109,7.20894],[125.40549,7.19737],[125.41204,7.18472],[125.41933,7.15837],[125.4279,7.12178],[125.43272,7.11364],[125.43672,7.10311],[125.44311,7.09437],[125.44996,7.08063],[125.4568,7.06989],[125.46358,7.06341],[125.46885,7.05585],[125.46994,7.05208]]]}},{"type":"Feature","properties":{"n":"Zamboanga Fault System East","slip":"Reverse"},"geometry":{"type":"MultiLineString","coordinates":[[[122.39173,7.5137],[122.32482,7.46913],[122.26381,7.29415],[122.17759,7.03582],[122.17759,7.02642],[122.17585,7.01926],[122.17251,7.01375],[122.16507,7.00814],[122.15938,7.00527]]]}},{"type":"Feature","properties":{"n":"Palayan-Gen. Tinio","slip":"Sinistral"},"geometry":{"type":"MultiLineString","coordinates":[[[121.12001,15.46923],[121.15592,15.42884],[121.19632,15.3635],[121.2412,15.27623],[121.25068,15.24331]]]}},{"type":"Feature","properties":{"n":"Bangui Fault","slip":"Sinistral-Reverse"},"geometry":{"type":"MultiLineString","coordinates":[[[120.92203,18.56058],[120.91273,18.52368],[120.89859,18.45794],[120.93452,18.3926],[120.97908,18.35407],[121.06982,18.28633],[121.08169,18.25925],[121.09755,18.23738],[121.11775,18.17018],[121.15993,18.0956],[121.21636,17.95992],[121.21615,17.92758],[121.24663,17.83101],[121.32173,17.74749],[121.3183,17.5922]]]}},{"type":"Feature","properties":{"n":"Bayog-Diplahan","slip":"Dextral"},"geometry":{"type":"MultiLineString","coordinates":[[[123.09914,7.83934],[122.95229,7.76166]]]}},{"type":"Feature","properties":{"n":"Mauban-Atimonan","slip":"Sinistral"},"geometry":{"type":"MultiLineString","coordinates":[[[121.90268,13.98076],[121.88387,13.99572],[121.73199,14.08538],[121.70297,14.12135]]]}},{"type":"Feature","properties":{"n":"Davao River Fault","slip":"Sinistral"},"geometry":{"type":"MultiLineString","coordinates":[[[125.39855,7.87195],[125.40877,7.79509],[125.40476,7.7009],[125.39071,7.6446],[125.38322,7.59588],[125.37798,7.53634],[125.36506,7.47138],[125.34779,7.39559]]]}},{"type":"Feature","properties":{"n":"Magsaysay-Malalag","slip":"Reverse"},"geometry":{"type":"MultiLineString","coordinates":[[[125.112,6.78593],[125.23918,6.56848],[125.28656,6.4463]]]}},{"type":"Feature","properties":{"n":"Abra River Fault","slip":"Sinistral-Reverse"},"geometry":{"type":"MultiLineString","coordinates":[[[120.74927,17.84015],[120.73631,17.78876],[120.72814,17.57004],[120.68112,17.22619],[120.67391,17.15681],[120.67911,17.00528],[120.68927,16.9828],[120.70902,16.95946]]]}},{"type":"Feature","properties":{"n":"Hapap Fault","slip":"Sinistral-Reverse"},"geometry":{"type":"MultiLineString","coordinates":[[[120.94936,16.21021],[120.95467,16.27668],[120.91745,16.42558],[120.94936,16.50801],[121.0504,16.9999],[121.10091,17.03181],[121.21525,17.16741],[121.26311,17.3881]]]}},{"type":"Feature","properties":{"n":"Candoni Fault","slip":"Normal"},"geometry":{"type":"MultiLineString","coordinates":[[[122.55772,9.8291],[122.55917,9.83317],[122.56001,9.83359],[122.56405,9.83295],[122.56644,9.83536],[122.5735,9.84027],[122.57767,9.8458],[122.58755,9.85311],[122.58948,9.8567],[122.59261,9.86032],[122.59754,9.86216],[122.59905,9.86214],[122.60342,9.86026],[122.61519,9.85801],[122.62465,9.85518],[122.62926,9.85223],[122.63283,9.8517],[122.64022,9.84666],[122.64908,9.84381],[122.66851,9.84143],[122.68722,9.83593],[122.68902,9.83433],[122.69472,9.83242],[122.70324,9.81446],[122.70398,9.81405],[122.71369,9.81125],[122.71799,9.81228],[122.72171,9.81052],[122.7282,9.80973],[122.72883,9.81057],[122.73224,9.81101],[122.73942,9.80783],[122.74365,9.80864],[122.74879,9.80796],[122.75046,9.80648],[122.75921,9.80488],[122.77022,9.79946],[122.77805,9.79723]]]}},{"type":"Feature","properties":{"n":"West Negros Fault","slip":"Reverse"},"geometry":{"type":"MultiLineString","coordinates":[[[122.83633,10.02688],[122.84095,10.03504],[122.84211,10.03849],[122.84288,10.04715],[122.89259,10.09983],[122.89821,10.11829],[122.89551,10.12786],[122.89731,10.13917],[122.89777,10.14995],[122.89845,10.15309],[122.89841,10.18561],[122.93695,10.23989],[122.94166,10.24851],[122.94434,10.25396],[122.95094,10.27199],[122.95423,10.28814],[122.96033,10.29807],[122.96188,10.30288],[122.96257,10.30395],[122.96856,10.30746],[122.97095,10.31103],[122.97489,10.31947],[122.98189,10.33049],[122.98386,10.33265],[122.9888,10.33595],[122.9941,10.34276]]]}},{"type":"Feature","properties":{"n":"Columbio","slip":"Sinistral"},"geometry":{"type":"MultiLineString","coordinates":[[[124.97386,6.70613],[125.08158,6.64429],[125.16836,6.61935]]]}},{"type":"Feature","properties":{"n":"Leyte Fault Southermost Segment","slip":"Sinistral"},"geometry":{"type":"MultiLineString","coordinates":[[[125.21382,10.13062],[125.28229,9.99347],[125.31862,9.90818]]]}},{"type":"Feature","properties":{"n":"East Cordillera Fault","slip":"Reverse"},"geometry":{"type":"MultiLineString","coordinates":[[[121.5398,17.3471],[121.54085,17.34125],[121.54115,17.33413],[121.53978,17.32646],[121.53843,17.3081],[121.53876,17.29888],[121.53966,17.29547],[121.54019,17.27047],[121.53847,17.2692],[121.54435,17.22028],[121.5434,17.20535],[121.55118,17.15992],[121.55538,17.15117],[121.56189,17.07033],[121.56344,17.01522],[121.56492,17.00993],[121.56241,16.94213],[121.55677,16.92338],[121.54983,16.90761],[121.53345,16.87568],[121.50695,16.83453],[121.48826,16.80829],[121.45973,16.75968],[121.44274,16.72736],[121.436,16.71831],[121.4093,16.67887]]]}},{"type":"Feature","properties":{"n":"East Zambales Fault","slip":"Reverse-Sinistral"},"geometry":{"type":"MultiLineString","coordinates":[[[120.16073,16.01774],[120.1805,15.97077],[120.19776,15.93585],[120.25069,15.85277],[120.34691,15.65171],[120.35808,15.61314],[120.39382,15.53656],[120.42552,15.45303],[120.44972,15.39855],[120.46272,15.37676]]]}},{"type":"Feature","properties":{"n":"Daguma Extension Mindanao Fault","slip":"Reverse"},"geometry":{"type":"MultiLineString","coordinates":[[[124.1837,7.02623],[124.26742,6.98296],[124.338,6.92669],[124.38736,6.90571],[124.4086,6.86609],[124.40869,6.84444],[124.48407,6.6929],[124.64792,6.41149],[124.74963,6.27296],[124.79405,6.16471],[124.85162,6.06514],[124.89141,6.01319],[124.97511,5.97425],[125.11585,5.96131]]]}},{"type":"Feature","properties":{"n":"Digdig Fault","slip":"Sinistral"},"geometry":{"type":"MultiLineString","coordinates":[[[121.3584,15.41865],[121.32292,15.44778],[121.31535,15.47553],[121.18324,15.60631],[121.1408,15.66646],[121.09973,15.71486],[121.07034,15.75953],[121.01583,15.87386],[120.97029,15.95648],[120.94799,16.05412],[120.91479,16.11715],[120.88156,16.2461],[120.89618,16.30194]]]}},{"type":"Feature","properties":{"n":"Iba Fault","slip":"Reverse-Sinistral"},"geometry":{"type":"MultiLineString","coordinates":[[[119.91065,15.89795],[119.95474,15.85769],[119.94141,15.84615],[119.95534,15.78158],[119.96835,15.71292],[119.98251,15.65039],[119.96362,15.64398],[120.03765,15.37786],[120.05945,15.33384],[120.12404,15.24513],[120.20032,15.20936],[120.22223,15.18862]]]}},{"type":"Feature","properties":{"n":"Ilagan-San Pablo","slip":"Reverse"},"geometry":{"type":"MultiLineString","coordinates":[[[121.89641,17.44709],[121.90068,17.32124],[121.94547,17.26365],[122.01693,17.08767]]]}},{"type":"Feature","properties":{"n":"Esperanza Fault","slip":"Sinistral"},"geometry":{"type":"MultiLineString","coordinates":[[[125.64066,8.91684],[125.65529,8.87097],[125.65529,8.80782],[125.67789,8.72406],[125.71843,8.62236],[125.72641,8.51866]]]}},{"type":"Feature","properties":{"n":"Guinayangan-Dingalan","slip":"Sinistral"},"geometry":{"type":"MultiLineString","coordinates":[[[121.405,15.35695],[121.65089,15.0039],[121.91114,14.34508],[122.04155,14.20127],[122.11578,14.14408],[122.25188,14.02775]]]}},{"type":"Feature","properties":{"n":"Lamon Bay","slip":"Sinistral"},"geometry":{"type":"MultiLineString","coordinates":[[[121.734,14.30067],[121.87554,14.1608],[122.21038,13.88943]]]}},{"type":"Feature","properties":{"n":"Lanao Fault System","slip":"Normal"},"geometry":{"type":"MultiLineString","coordinates":[[[124.37178,8.12742],[124.19524,7.97431],[124.00024,7.82719]]]}},{"type":"Feature","properties":{"n":"Infanta Fault","slip":"Sinistral"},"geometry":{"type":"MultiLineString","coordinates":[[[121.47878,15.18695],[121.51776,15.06083],[121.54343,15.02417],[121.57806,14.94964],[121.60943,14.60755],[121.63498,14.49459],[121.65838,14.41616],[121.67687,14.37221],[121.73494,14.30451]]]}},{"type":"Feature","properties":{"n":"Kabugao-Lassam","slip":"Normal"},"geometry":{"type":"MultiLineString","coordinates":[[[121.58143,18.07865],[121.50153,18.05908],[121.43591,18.03243],[121.37005,17.99755],[121.29131,17.96004],[121.26533,17.96456],[121.21982,17.93491],[121.19783,17.93076]]]}},{"type":"Feature","properties":{"n":"Leyte Fault North1","slip":"Sinistral"},"geometry":{"type":"MultiLineString","coordinates":[[[124.47257,11.39493],[124.55898,11.2665],[124.62951,11.13993],[124.66621,11.08996],[124.6904,11.07085]]]}},{"type":"Feature","properties":{"n":"Leyte Fault South2","slip":"Sinistral"},"geometry":{"type":"MultiLineString","coordinates":[[[125.15837,10.1397],[125.12557,10.25978],[125.10078,10.33622],[125.08393,10.37605],[125.04576,10.50755],[125.03866,10.54374],[125.03529,10.55234]]]}},{"type":"Feature","properties":{"n":"Legaspi Lineament","slip":"Sinistral"},"geometry":{"type":"MultiLineString","coordinates":[[[122.82535,13.64538],[123.21195,13.39636],[123.21907,13.38996],[123.22607,13.38479],[123.26063,13.36451],[123.27935,13.35104],[123.29616,13.34095],[123.30746,13.32997],[123.31613,13.32322],[123.32114,13.31812],[123.3414,13.30435],[123.37475,13.28798],[123.38104,13.28568],[123.39,13.28077],[123.3956,13.27682],[123.42752,13.26276],[123.4554,13.24827],[123.4952,13.22605],[123.51266,13.21409],[123.5246,13.20783],[123.55113,13.19769],[123.59328,13.17437],[123.60062,13.16964],[123.63072,13.15741],[123.63287,13.156],[123.65567,13.1475],[123.66218,13.14383],[123.67148,13.14038],[123.6922,13.13508],[123.70197,13.13186],[123.7406,13.12559],[123.76645,13.12346],[123.78414,13.12089]]]}},{"type":"Feature","properties":{"n":"Leyte Fault Central","slip":"Sinistral"},"geometry":{"type":"MultiLineString","coordinates":[[[124.68742,11.09218],[124.7325,11.01444],[124.74886,10.99821],[124.78025,10.96895],[124.8174,10.93162],[124.86127,10.84653],[124.92242,10.76012],[125.02612,10.5607],[125.04075,10.51239]]]}},{"type":"Feature","properties":{"n":"Ambuklao Fault","slip":"Sinistral-Reverse"},"geometry":{"type":"MultiLineString","coordinates":[[[120.71668,16.97726],[120.75591,16.88448],[120.75867,16.85028],[120.78948,16.74491],[120.81365,16.70932],[120.81387,16.67828],[120.85033,16.53821],[120.84832,16.50402],[120.86618,16.42217],[120.89861,16.31894]]]}},{"type":"Feature","properties":{"n":"Bambang-Ma. Aurora","slip":"Sinistral"},"geometry":{"type":"MultiLineString","coordinates":[[[121.13298,16.3769],[121.15567,16.31331],[121.21278,16.24175],[121.24952,16.2038],[121.27811,16.16295],[121.32948,16.04924],[121.34643,15.99239],[121.38833,15.90561],[121.43919,15.81285]]]}},{"type":"Feature","properties":{"n":"Aglubang River Fault","slip":"Sinistral"},"geometry":{"type":"MultiLineString","coordinates":[[[121.11991,13.41024],[121.12786,13.39986],[121.13407,13.38688],[121.13677,13.37216],[121.14478,13.3462],[121.14658,13.33582],[121.15282,13.31678],[121.16516,13.30726],[121.17384,13.30158],[121.18464,13.27178],[121.18825,13.24928],[121.1883,13.23803],[121.19189,13.21812],[121.19017,13.2112],[121.19023,13.19562],[121.19209,13.17052],[121.1913,13.15148],[121.19308,13.14542],[121.19599,13.07877],[121.19958,13.06319],[121.19789,13.04502],[121.20064,13.01992],[121.2016,13.00001]]]}},{"type":"Feature","properties":{"n":"Agusan Marsh Fault","slip":"Sinistral"},"geometry":{"type":"MultiLineString","coordinates":[[[125.75832,8.51866],[125.83277,8.30861],[125.91253,8.00151]]]}},{"type":"Feature","properties":{"n":"Caraga River Fault","slip":"Sinistral"},"geometry":{"type":"MultiLineString","coordinates":[[[126.12505,7.53828],[126.15429,7.50644],[126.17914,7.4671],[126.1901,7.44612],[126.1966,7.42677],[126.20554,7.41656],[126.2143,7.39978],[126.21861,7.38167],[126.23077,7.35639],[126.23737,7.32883],[126.24371,7.31437],[126.24312,7.30156],[126.24501,7.29669]]]}},{"type":"Feature","properties":{"n":"Casiguran Fault","slip":"Reverse"},"geometry":{"type":"MultiLineString","coordinates":[[[122.24539,16.50847],[122.22934,16.49629],[122.2199,16.48483],[122.20921,16.46671],[122.18805,16.44185],[122.17535,16.42227],[122.13707,16.37685],[122.13219,16.36584],[122.11972,16.35061],[122.1171,16.34593],[122.10811,16.33644],[122.10192,16.32429],[122.0971,16.30661],[122.09626,16.29142],[122.09415,16.28329],[122.08974,16.27273],[122.06984,16.23228],[122.06078,16.22295],[122.03597,16.2058],[122.03152,16.20206],[122.01309,16.18081],[122.00885,16.17713],[122.00214,16.16974]]]}},{"type":"Feature","properties":{"n":"Bayog-Dimalinao","slip":"Sinistral"},"geometry":{"type":"MultiLineString","coordinates":[[[123.1018,7.97609],[123.18055,7.89202],[123.43381,7.74942]]]}},{"type":"Feature","properties":{"n":"Buenavista","slip":"Sinistral"},"geometry":{"type":"MultiLineString","coordinates":[[[125.39465,8.95429],[125.4535,8.83809],[125.47993,8.81265]]]}},{"type":"Feature","properties":{"n":"Central Mindanao Fault","slip":"Sinistral"},"geometry":{"type":"MultiLineString","coordinates":[[[125.09507,8.81506],[125.16634,8.59423],[125.23308,8.40805],[125.25989,8.30413],[125.31727,8.25219],[125.45421,8.09635],[125.52954,7.9578],[125.64458,7.78463],[125.69343,7.66773]]]}},{"type":"Feature","properties":{"n":"Central Mindoro Fault","slip":"Sinistral-Normal"},"geometry":{"type":"MultiLineString","coordinates":[[[121.00422,13.44635],[121.02514,13.37818],[121.04288,13.33924],[121.05612,13.32366],[121.07115,13.3029],[121.07828,13.27867],[121.09604,13.23367],[121.10317,13.21116],[121.11383,13.18434],[121.11923,13.15233],[121.13515,13.12808],[121.14671,13.09693],[121.15025,13.09087],[121.15116,13.08308],[121.1583,13.05712],[121.17157,13.03635],[121.18216,13.02597],[121.20013,12.9955],[121.20176,12.97676],[121.20795,12.96237],[121.20979,12.9516],[121.21436,12.93287],[121.21392,12.92885],[121.22112,12.91312],[121.23093,12.89821],[121.23714,12.88452],[121.24674,12.87146],[121.25569,12.82036],[121.27635,12.7807],[121.28967,12.75245],[121.30107,12.73405],[121.31551,12.72804],[121.32433,12.71146],[121.34421,12.68498],[121.38151,12.69058],[121.39404,12.67293],[121.40192,12.6598],[121.41839,12.62245],[121.42728,12.59125],[121.44798,12.54199],[121.45644,12.51222]]]}},{"type":"Feature","properties":{"n":"Central Compostela Valley Fault","slip":"Sinistral"},"geometry":{"type":"MultiLineString","coordinates":[[[125.95641,7.99885],[126.00958,7.94035],[126.03086,7.88585],[126.04415,7.79145],[126.07074,7.53088]]]}},{"type":"Feature","properties":{"n":"Central Marinduque Fault","slip":"Sinistral"},"geometry":{"type":"MultiLineString","coordinates":[[[121.87148,13.44821],[121.89934,13.41636],[121.92727,13.36932],[121.95823,13.33445],[122.04014,13.26924]]]}},{"type":"Feature","properties":{"n":"Chico Fault West","slip":"Reverse-Dextral"},"geometry":{"type":"MultiLineString","coordinates":[[[121.22512,17.39965],[121.17724,17.38718],[121.02663,17.32484],[120.93636,17.24604]]]}},{"type":"Feature","properties":{"n":"Columbio-Datu Paglas","slip":"Reverse"},"geometry":{"type":"MultiLineString","coordinates":[[[124.87798,6.73898],[124.93483,6.69011],[125.0276,6.54149]]]}},{"type":"Feature","properties":{"n":"Central Negros Fault South","slip":"Sinistral-Normal"},"geometry":{"type":"MultiLineString","coordinates":[[[122.85053,9.92408],[122.85687,9.91662],[122.86469,9.89982],[122.86548,9.8967],[122.86502,9.89371],[122.86567,9.8906],[122.86951,9.88517],[122.87478,9.87927],[122.88451,9.86559],[122.88965,9.85994],[122.89311,9.8572],[122.90303,9.85424],[122.91248,9.84162],[122.91808,9.83585],[122.92193,9.83317],[122.92942,9.82442],[122.93298,9.82183],[122.94193,9.80896],[122.94486,9.80689],[122.94648,9.80483],[122.94876,9.80033],[122.96079,9.78883],[122.96688,9.78016],[122.96899,9.77312],[122.97054,9.77073],[122.98021,9.73347],[122.98524,9.69661],[122.9901,9.68938],[122.99249,9.68747],[122.99613,9.68232]]]}},{"type":"Feature","properties":{"n":"Offshore North of Sta Ana","slip":"Reverse"},"geometry":{"type":"MultiLineString","coordinates":[[[122.37902,19.07248],[122.32617,18.95368],[122.19048,18.78494],[122.0292,18.62454]]]}},{"type":"Feature","properties":{"n":"Offshore Pagudpud","slip":""},"geometry":{"type":"MultiLineString","coordinates":[[[120.82764,18.82049],[120.77178,18.54919]]]}},{"type":"Feature","properties":{"n":"Offshore NE of Calayan","slip":""},"geometry":{"type":"MultiLineString","coordinates":[[[121.96066,19.86554],[122.01684,19.48902]]]}},{"type":"Feature","properties":{"n":"Offshore North of Pagudpud","slip":""},"geometry":{"type":"MultiLineString","coordinates":[[[121.01597,19.0528],[120.98975,18.86326],[120.96181,18.7073],[120.93227,18.57059]]]}},{"type":"Feature","properties":{"n":"Offshore Ticao-Guinayangan","slip":"Sinistral"},"geometry":{"type":"MultiLineString","coordinates":[[[122.51978,13.76966],[122.57823,13.7241],[122.65571,13.64902],[122.94031,13.26684],[123.18269,12.98842],[123.2699,12.91915],[123.55396,12.63464],[123.60138,12.55516],[123.67161,12.44598],[123.73683,12.36176],[123.85148,12.23127]]]}},{"type":"Feature","properties":{"n":"Pugo Fault","slip":"Sinistral-Reverse"},"geometry":{"type":"MultiLineString","coordinates":[[[120.42024,16.40298],[120.51197,16.23281]]]}},{"type":"Feature","properties":{"n":"Offshore South of Calayan","slip":""},"geometry":{"type":"MultiLineString","coordinates":[[[121.55533,19.1964],[121.46551,18.9337]]]}},{"type":"Feature","properties":{"n":"Offshore Surigao","slip":"Sinistral"},"geometry":{"type":"MultiLineString","coordinates":[[[125.42055,9.78267],[125.4061,9.80868],[125.37961,9.8395],[125.35071,9.86502],[125.32663,9.8997]]]}},{"type":"Feature","properties":{"n":"San Narciso-Uson","slip":"Sinistral"},"geometry":{"type":"MultiLineString","coordinates":[[[122.61243,13.48022],[122.94757,13.02738],[123.15304,12.81992],[123.3246,12.68028],[123.5959,12.42892],[123.73704,12.25936]]]}},{"type":"Feature","properties":{"n":"Sibuyan Sea Fault","slip":"Sinistral"},"geometry":{"type":"MultiLineString","coordinates":[[[121.94895,13.61196],[122.06359,13.53406],[122.22694,13.37389],[122.29318,13.30463],[122.72997,12.94104],[123.11356,12.68137],[123.11859,12.67437],[123.37412,12.55078],[123.59186,12.42927]]]}},{"type":"Feature","properties":{"n":"San Jose Fault","slip":"Reverse-Sinistral"},"geometry":{"type":"MultiLineString","coordinates":[[[120.7978,16.09854],[120.84128,15.99692],[120.92384,15.87145],[121.00254,15.7808],[121.07566,15.70502]]]}},{"type":"Feature","properties":{"n":"San Manuel Fault","slip":"Reverse-Sinistral"},"geometry":{"type":"MultiLineString","coordinates":[[[120.51064,16.20755],[120.57179,16.15171],[120.6489,16.07992],[120.80711,16.01877]]]}},{"type":"Feature","properties":{"n":"Surigao Fault","slip":"Sinistral"},"geometry":{"type":"MultiLineString","coordinates":[[[125.42673,9.78635],[125.42634,9.78241],[125.42793,9.76993],[125.43299,9.75191],[125.43421,9.73957],[125.43586,9.73079],[125.4365,9.72181],[125.43906,9.71537],[125.44167,9.70111],[125.45463,9.65463],[125.47033,9.53641],[125.53009,9.33202],[125.53544,9.31931],[125.54571,9.28222],[125.5507,9.26888],[125.55369,9.25668],[125.56054,9.25526],[125.56609,9.24017],[125.56775,9.23347],[125.56869,9.22547],[125.5871,9.16701],[125.60929,9.11811],[125.61328,9.0867],[125.61842,9.07103],[125.6183,9.06817],[125.61977,9.06073],[125.61779,9.04002],[125.61819,9.03284],[125.62031,9.01784],[125.62399,8.99577],[125.63137,8.97936],[125.63287,8.95269],[125.64049,8.93199],[125.64867,8.91332],[125.66212,8.90049],[125.65945,8.89623],[125.66495,8.8861],[125.67119,8.88017],[125.67239,8.87713],[125.67767,8.86857],[125.69116,8.85175],[125.69626,8.83179]]]}},{"type":"Feature","properties":{"n":"Tablas Fault","slip":"Reverse"},"geometry":{"type":"MultiLineString","coordinates":[[[122.19502,12.837],[122.16418,12.72463],[122.12478,12.51974],[122.08081,12.33687],[122.01894,12.15619],[121.92805,11.96229],[121.8415,11.80144],[121.83044,11.77059]]]}},{"type":"Feature","properties":{"n":"Southern Mindoro Fault","slip":"Reverse"},"geometry":{"type":"MultiLineString","coordinates":[[[121.40917,12.58857],[121.33614,12.48648],[121.19363,12.40069],[121.2071,12.24471],[121.20001,12.23691]]]}},{"type":"Feature","properties":{"n":"Southern Negros FS North","slip":"Reverse"},"geometry":{"type":"MultiLineString","coordinates":[[[123.13712,9.67319],[123.13299,9.66596],[123.12814,9.66115],[123.11993,9.65732],[123.10976,9.65149],[123.10663,9.64769],[123.09987,9.64286],[123.09842,9.64109],[123.09626,9.63982],[123.09385,9.63666],[123.0914,9.6353],[123.08804,9.62959],[123.08689,9.62605],[123.08707,9.62116],[123.08521,9.6191],[123.08396,9.60882],[123.08137,9.60244],[123.08179,9.596],[123.08115,9.59145],[123.08831,9.5359],[123.08669,9.52641],[123.08752,9.52316],[123.08704,9.516],[123.0848,9.5072],[123.08532,9.50069],[123.0846,9.49824],[123.0813,9.49359],[123.08,9.48964],[123.07862,9.4675],[123.05899,9.45108],[123.05797,9.44722],[123.05935,9.43562],[123.0586,9.43029],[123.05835,9.42048]]]}},{"type":"Feature","properties":{"n":"Masbate Fault East","slip":"Sinistral"},"geometry":{"type":"MultiLineString","coordinates":[[[123.86692,12.19832],[123.8736,12.18833],[123.87722,12.18169],[123.88144,12.17593],[123.89159,12.16521],[123.9072,12.14464],[123.96055,12.06782],[123.98435,12.03653],[124.02029,11.99897],[124.02995,11.97438]]]}},{"type":"Feature","properties":{"n":"Masbate Fault West","slip":"Sinistral"},"geometry":{"type":"MultiLineString","coordinates":[[[123.74951,12.2414],[123.79838,12.16759],[123.90511,12.04291],[124.00657,11.95148],[124.07492,11.84941]]]}},{"type":"Feature","properties":{"n":"Lianga Fault","slip":"Sinistral"},"geometry":{"type":"MultiLineString","coordinates":[[[125.76129,8.76739],[125.81267,8.71872],[125.85456,8.68842],[125.88651,8.67219],[126.01291,8.61952],[126.02111,8.60733],[126.02875,8.60001],[126.04479,8.59346],[126.04704,8.59114],[126.05622,8.58624],[126.06869,8.58217],[126.0716,8.58055],[126.0775,8.57941],[126.08426,8.57615],[126.08684,8.57438],[126.09238,8.56862],[126.09595,8.56714],[126.10072,8.56099],[126.10586,8.55919],[126.1109,8.55618],[126.12345,8.54518],[126.13019,8.54034],[126.1449,8.53189],[126.23839,8.52488],[126.24814,8.51946],[126.25517,8.51675],[126.26291,8.51484],[126.26864,8.51143],[126.27356,8.50952],[126.27758,8.50882],[126.29903,8.49959],[126.30581,8.49737],[126.30723,8.49773],[126.31316,8.49579],[126.31755,8.49518],[126.32038,8.49345],[126.32597,8.49179],[126.32957,8.4872],[126.33736,8.48054],[126.34159,8.47914],[126.34488,8.47645],[126.35152,8.47259],[126.42429,8.46915],[126.53439,8.42589],[126.56964,8.40858],[126.68415,8.36099],[126.68858,8.35233],[126.74143,8.3307]]]}},{"type":"Feature","properties":{"n":"Lubang Fault South","slip":"Sinistral"},"geometry":{"type":"MultiLineString","coordinates":[[[120.31798,13.57235],[120.51579,13.58109],[121.04801,13.525],[121.28563,13.47745],[121.49262,13.39526]]]}},{"type":"Feature","properties":{"n":"Nabunturan Fault","slip":"Sinistral-Normal"},"geometry":{"type":"MultiLineString","coordinates":[[[126.03463,7.80331],[126.00122,7.75045],[125.99224,7.73798],[125.98676,7.67614],[125.97977,7.64222],[125.95384,7.59934]]]}},{"type":"Feature","properties":{"n":"Mati Fault","slip":"Sinistral"},"geometry":{"type":"MultiLineString","coordinates":[[[126.17946,7.46265],[126.17869,7.45028],[126.17263,7.41965],[126.17777,7.39965],[126.17584,7.35749],[126.16595,7.29293],[126.16092,7.26558],[126.16477,7.23561],[126.15955,7.19654],[126.16444,7.16529],[126.17102,7.1564],[126.17351,7.13555],[126.17854,7.10402],[126.19388,7.05134],[126.20233,7.02738],[126.2083,7.0017],[126.20275,6.98477],[126.1997,6.96985]]]}},{"type":"Feature","properties":{"n":"Mindanao Fault-Upi","slip":"Reverse"},"geometry":{"type":"MultiLineString","coordinates":[[[124.01221,7.03572],[124.04424,6.99628],[124.12594,6.93689],[124.14322,6.89194],[124.22516,6.84721]]]}},{"type":"Feature","properties":{"n":"North Bohol Fault","slip":"Reverse"},"geometry":{"type":"MultiLineString","coordinates":[[[123.79734,9.81868],[123.82044,9.82759],[123.85915,9.84522],[123.87138,9.8498],[123.87893,9.85337],[123.89408,9.85765],[123.92782,9.87625],[123.94918,9.88563],[123.95743,9.88825],[123.97966,9.89829],[123.98484,9.90159],[123.98876,9.90321],[123.99676,9.90939],[124.01284,9.91816],[124.02043,9.92133],[124.04464,9.93401],[124.0545,9.94089],[124.08177,9.96272],[124.10406,9.98746],[124.13312,10.01278],[124.13987,10.02016],[124.14133,10.02499]]]}},{"type":"Feature","properties":{"n":"Northern Samar Lineament","slip":"Sinistral"},"geometry":{"type":"MultiLineString","coordinates":[[[124.28693,12.5022],[124.29124,12.49382],[124.29415,12.48979],[124.33285,12.44633],[124.37099,12.40141],[124.38164,12.39065],[124.39037,12.37916],[124.40359,12.35933],[124.42551,12.32463],[124.43318,12.31144],[124.43575,12.30535],[124.45509,12.27554],[124.49144,12.22409],[124.49272,12.21604],[124.50361,12.1989],[124.52096,12.17539],[124.52557,12.16453],[124.52769,12.13795]]]}},{"type":"Feature","properties":{"n":"Lubang Fault North","slip":"Sinistral"},"geometry":{"type":"MultiLineString","coordinates":[[[120.0699,14.01829],[120.18873,13.98802],[120.22843,13.95772],[120.53326,13.8015],[120.81007,13.65049],[121.07,13.52501]]]}},{"type":"Feature","properties":{"n":"Norala-Koronadal","slip":""},"geometry":{"type":"MultiLineString","coordinates":[[[124.70094,6.58588],[124.7533,6.49461],[124.80317,6.47815],[124.82163,6.46718],[124.88397,6.3455]]]}},{"type":"Feature","properties":{"n":"Offshore East Bohol","slip":"Reverse"},"geometry":{"type":"MultiLineString","coordinates":[[[124.82046,9.84095],[124.57672,9.62971]]]}},{"type":"Feature","properties":{"n":"Offshore West of Calayan","slip":""},"geometry":{"type":"MultiLineString","coordinates":[[[121.01255,19.20139],[121.19679,19.50921],[121.33916,19.84944]]]}},{"type":"Feature","properties":{"n":"Offshore Davao Gulf","slip":"Reverse"},"geometry":{"type":"MultiLineString","coordinates":[[[125.63148,6.60241],[125.68041,6.56366],[125.74116,6.48306],[125.7963,6.38183],[125.8445,6.20745],[125.86354,5.97869],[125.82945,5.80503],[125.78135,5.63698]]]}},{"type":"Feature","properties":{"n":"Offshore FS North of Cagayan","slip":"Reverse"},"geometry":{"type":"MultiLineString","coordinates":[[[121.7196,18.50098],[121.92755,18.71109],[122.05208,18.89519],[122.15026,19.07278],[122.28487,19.4734]]]}},{"type":"Feature","properties":{"n":"Chico Fault","slip":"Reverse-Dextral"},"geometry":{"type":"MultiLineString","coordinates":[[[121.43594,17.6859],[121.26633,17.48527],[121.24582,17.41401],[121.21691,17.38112],[121.15247,17.26312],[121.09199,17.20463]]]}}]}