{"type":"FeatureCollection","features":[{"type":"Feature","properties":{"t":"line","line":"lrt1","s":"build"},"geometry":{"type":"MultiLineString","coordinates":[[[120.96394,14.47064],[120.96466,14.47098],[120.96526,14.47112],[120.96989,14.47281],[120.97056,14.4732]],[[121.03074,14.65499],[121.03035,14.65557],[121.02985,14.65586],[121.02827,14.65622],[121.02649,14.65642]],[[121.03132,14.6541],[121.03074,14.65499]],[[121.03217,14.65281],[121.03132,14.6541]],[[120.97055,14.47323],[120.96988,14.47283],[120.96465,14.47101],[120.96392,14.47067]],[[121.03143,14.65393],[121.03221,14.65283]]]}},{"type":"Feature","properties":{"t":"line","line":"lrt1","s":"run"},"geometry":{"type":"MultiLineString","coordinates":[[[120.99871,14.53475],[120.99857,14.53458]],[[120.99803,14.53389],[120.99698,14.53254],[120.99664,14.53231],[120.99381,14.53211],[120.99325,14.53192],[120.9929,14.53147],[120.99285,14.53085]],[[120.99865,14.53462],[120.99874,14.53473]],[[120.9986,14.53456],[120.99865,14.53462]],[[120.99289,14.53085],[120.99293,14.53147],[120.99327,14.53189],[120.99382,14.53207],[120.99665,14.53227],[120.99701,14.53252],[120.99806,14.53387]],[[120.99887,14.53471],[120.99909,14.53518]],[[121.0297,14.65566],[121.03008,14.65546],[121.03038,14.65506]],[[120.99874,14.53473],[120.99909,14.53518]],[[120.99924,14.53543],[120.99871,14.53475]],[[120.99909,14.53518],[120.99915,14.53525]],[[121.00073,14.53839],[120.9952,14.56253],[120.99133,14.57072],[120.98211,14.587],[120.98201,14.58769],[120.9822,14.58906],[120.98188,14.59194],[120.98074,14.59585],[120.98084,14.59738],[120.98131,14.59869],[120.98188,14.60254],[120.98263,14.61319],[120.98308,14.62811],[120.98303,14.6286],[120.98277,14.6292],[120.98091,14.63128],[120.9807,14.6319],[120.98072,14.63244],[120.98083,14.63288],[120.98318,14.63789],[120.98338,14.63876],[120.98392,14.65465]],[[120.99141,14.50876],[120.99236,14.51279],[120.99295,14.51796]],[[121.0007,14.53838],[121.00069,14.53772],[121.00045,14.53708],[120.99924,14.53543]],[[120.99805,14.53367],[120.99887,14.53471]],[[120.99306,14.5189],[120.99335,14.52224],[120.99337,14.52664],[120.99289,14.53085]],[[120.99137,14.50877],[120.99111,14.50784]],[[120.99115,14.50783],[120.99141,14.50876]],[[120.99437,14.498],[120.99412,14.49716],[120.99287,14.49578],[120.9925,14.49514],[120.99146,14.48915],[120.98992,14.48632]],[[120.99439,14.498],[120.99434,14.50049],[120.99419,14.50099],[120.99391,14.50144],[120.99337,14.50187],[120.99291,14.50204],[120.99071,14.50228],[120.99026,14.50255],[120.98979,14.50324],[120.98972,14.50368],[120.98978,14.50417],[120.99115,14.50783]],[[120.99111,14.50784],[120.98974,14.50419],[120.98967,14.50368],[120.98975,14.50323],[120.99023,14.50251],[120.9907,14.50223],[120.99291,14.502],[120.99334,14.50183],[120.99387,14.50141],[120.9943,14.50049],[120.99437,14.498]],[[120.98977,14.48593],[120.9915,14.48914],[120.99253,14.49514],[120.99288,14.49575],[120.99414,14.49714],[120.99439,14.498]],[[120.99285,14.53085],[120.99334,14.52627],[120.99331,14.52224],[120.99302,14.5189]],[[121.03042,14.65509],[121.02992,14.65561],[121.02916,14.65582]],[[120.99857,14.53458],[120.99803,14.53389]],[[120.99806,14.53387],[120.9986,14.53456]],[[121.00352,14.65742],[120.9849,14.65713],[120.98425,14.65683],[120.98397,14.65631],[120.98385,14.65383]],[[121.02069,14.65762],[121.00352,14.65742]],[[121.02649,14.65642],[121.02226,14.65737],[121.02069,14.65762]],[[120.98385,14.65383],[120.98334,14.63877],[120.98314,14.63789],[120.9808,14.63289],[120.98068,14.63245],[120.98071,14.63174],[120.98088,14.63128],[120.98273,14.62921],[120.98294,14.62877],[120.98305,14.62811],[120.98259,14.61317],[120.98185,14.60254],[120.98128,14.5987],[120.98081,14.59739],[120.98068,14.59585],[120.98184,14.59194],[120.98216,14.58906],[120.98198,14.5877],[120.98208,14.58699],[120.9913,14.5707],[120.99517,14.56252],[121.0007,14.53838]],[[120.99915,14.53525],[121.00048,14.53706],[121.00072,14.53771],[121.00073,14.53839]],[[120.98392,14.65465],[120.98397,14.65613],[120.98409,14.65651],[120.98439,14.65689],[120.985,14.65712],[121.00437,14.6574]],[[121.02649,14.65642],[121.02689,14.65628]],[[121.00437,14.6574],[121.01996,14.65763],[121.02159,14.65746]],[[120.99302,14.5189],[120.99291,14.51797]],[[120.99295,14.51796],[120.99306,14.5189]],[[120.99291,14.51797],[120.99231,14.5128],[120.99137,14.50877]],[[121.02648,14.65637],[121.0297,14.65566]],[[121.02648,14.65637],[121.02689,14.65633]],[[121.02916,14.65582],[121.02649,14.65642]],[[121.02159,14.65746],[121.02648,14.65637]],[[120.98992,14.48632],[120.98725,14.48085]],[[120.9891,14.48455],[120.98977,14.48593]],[[120.98992,14.48632],[120.98977,14.48593]],[[120.98827,14.48287],[120.98905,14.48446]],[[120.98902,14.48448],[120.98892,14.48419]],[[120.98728,14.48084],[120.9891,14.48455]]]}},{"type":"Feature","properties":{"t":"line","line":"lrt2","s":"run"},"geometry":{"type":"MultiLineString","coordinates":[[[121.00054,14.60112],[120.999,14.60066],[120.99764,14.60089],[120.99608,14.60059],[120.99562,14.60066],[120.99451,14.60111],[120.9938,14.60122],[120.99141,14.60054],[120.99094,14.60052],[120.99032,14.6007],[120.98492,14.60324],[120.98402,14.6035]],[[121.07941,14.62956],[121.08107,14.62717],[121.08287,14.62499],[121.08636,14.62164]],[[121.09239,14.61871],[121.11569,14.62358]],[[121.07006,14.62969],[121.07115,14.63021]],[[121.07115,14.63021],[121.07496,14.63208],[121.07598,14.63243],[121.07645,14.63246],[121.07705,14.63229],[121.07824,14.63125]],[[121.11569,14.62358],[121.11865,14.6242]],[[121.12138,14.62477],[121.12404,14.62532]],[[121.08646,14.62173],[121.08289,14.62501],[121.0811,14.62719],[121.07945,14.62959]],[[121.06873,14.62908],[121.07006,14.62969]],[[121.05592,14.62426],[121.0625,14.62751],[121.06337,14.62777],[121.06713,14.62838],[121.06873,14.62908]],[[121.06868,14.62912],[121.06711,14.62846],[121.06336,14.62782],[121.06248,14.62755],[121.0559,14.6243]],[[121.07004,14.62974],[121.06868,14.62912]],[[121.0559,14.6243],[121.05304,14.62293]],[[121.07113,14.63023],[121.07004,14.62974]],[[121.07945,14.62959],[121.07828,14.63128]],[[121.07828,14.63128],[121.07708,14.63234],[121.07645,14.63251],[121.07598,14.63249],[121.07494,14.63213],[121.07113,14.63023]],[[121.07824,14.63125],[121.07941,14.62956]],[[121.05304,14.62293],[121.05214,14.6225]],[[121.05216,14.62247],[121.05305,14.6229]],[[120.98401,14.60346],[120.98491,14.60321],[120.9903,14.60067],[120.99094,14.60049],[120.99142,14.60051],[120.9938,14.60118],[120.9945,14.60108],[120.99561,14.60063],[120.99608,14.60055],[120.99764,14.60085],[120.99901,14.60063],[121.00055,14.60109]],[[121.05214,14.6225],[121.04744,14.62052]],[[121.05305,14.6229],[121.05592,14.62426]],[[121.12402,14.62538],[121.12136,14.62483]],[[121.11862,14.62427],[121.11567,14.62364]],[[121.11567,14.62364],[121.09237,14.61876]],[[121.09237,14.61876],[121.09151,14.61863],[121.0908,14.61868],[121.08965,14.61913]],[[121.08962,14.61909],[121.09081,14.61864],[121.09152,14.61859],[121.09239,14.61871]],[[121.04745,14.62049],[121.05216,14.62247]],[[120.9795,14.60426],[120.98053,14.60391],[120.98157,14.60385],[120.98398,14.60347]],[[120.98309,14.60364],[120.98053,14.60394],[120.97951,14.60429]],[[121.00346,14.60157],[121.00054,14.60112]],[[121.00055,14.60109],[121.00346,14.60154]],[[121.04744,14.62052],[121.04409,14.61939],[121.03306,14.61293],[121.02276,14.60947],[121.0221,14.60901],[121.01572,14.60284],[121.01457,14.60258],[121.00346,14.60157]],[[121.00346,14.60154],[121.01457,14.60255],[121.01573,14.60281],[121.02213,14.60899],[121.02277,14.60945],[121.03308,14.6129],[121.04417,14.6194],[121.04745,14.62049]],[[121.08965,14.61913],[121.0876,14.62065],[121.08646,14.62173]],[[121.08636,14.62164],[121.08962,14.61909]],[[120.98398,14.60347],[120.98401,14.60346]],[[120.98402,14.6035],[120.98309,14.60364]],[[121.11865,14.6242],[121.12138,14.62477]],[[121.12136,14.62483],[121.11862,14.62427]]]}},{"type":"Feature","properties":{"t":"line","line":"mrt3","s":"run"},"geometry":{"type":"MultiLineString","coordinates":[[[121.02068,14.54301],[121.0189,14.54163],[121.01745,14.54081]],[[121.03196,14.65266],[121.03112,14.65398]],[[121.05946,14.59646],[121.059,14.5954]],[[121.00189,14.5376],[121.00339,14.5378]],[[121.05459,14.58281],[121.05237,14.57954]],[[121.05299,14.58036],[121.0541,14.58197]],[[121.05459,14.58281],[121.0541,14.58197]],[[121.05268,14.57982],[121.05299,14.58036]],[[121.04059,14.55976],[121.03919,14.55857]],[[121.01361,14.53929],[121.01181,14.53893],[121.00813,14.53844]],[[121.02581,14.54733],[121.02068,14.54301]],[[121.04529,14.56617],[121.04473,14.56444],[121.04371,14.56267],[121.04243,14.56131],[121.04059,14.55976]],[[121.02848,14.54957],[121.02627,14.54766]],[[121.0549,14.58323],[121.05459,14.58281]],[[121.05486,14.58306],[121.05561,14.58455],[121.05721,14.58926],[121.05755,14.59093],[121.059,14.59535]],[[121.0541,14.58197],[121.05486,14.58306]],[[121.0513,14.57798],[121.05268,14.57982]],[[121.05237,14.57954],[121.05128,14.578]],[[121.05237,14.57954],[121.05299,14.58036]],[[121.05486,14.58306],[121.05268,14.57982]],[[121.059,14.5954],[121.05753,14.59094],[121.05718,14.58927],[121.05558,14.58456],[121.0549,14.58323]],[[121.04214,14.63706],[121.04295,14.63583]],[[121.04298,14.63585],[121.04217,14.63708]],[[121.04295,14.63583],[121.0436,14.63483]],[[121.04363,14.63485],[121.04298,14.63585]],[[121.03975,14.64073],[121.04214,14.63706]],[[121.04217,14.63708],[121.03978,14.64075]],[[121.059,14.59535],[121.0595,14.59645]],[[121.05084,14.62005],[121.04831,14.62554]],[[121.0595,14.59645],[121.05976,14.59811]],[[121.05972,14.59811],[121.05946,14.59646]],[[121.05667,14.60733],[121.05698,14.60665]],[[121.05701,14.60666],[121.0567,14.60735]],[[121.05698,14.60665],[121.0593,14.60142],[121.05967,14.59966],[121.05972,14.59811]],[[121.05976,14.59811],[121.05971,14.59966],[121.05934,14.60143],[121.05701,14.60666]],[[121.05132,14.6189],[121.05616,14.60842]],[[121.0567,14.60735],[121.0562,14.60844]],[[121.05081,14.62003],[121.05132,14.6189]],[[121.05135,14.61891],[121.05084,14.62005]],[[121.05616,14.60842],[121.05667,14.60733]],[[121.04697,14.62838],[121.04737,14.62752]],[[121.0562,14.60844],[121.05135,14.61891]],[[121.03193,14.65265],[121.03259,14.65167]],[[121.03264,14.65167],[121.03198,14.65264]],[[121.03109,14.65396],[121.03193,14.65265]],[[121.03427,14.64919],[121.03264,14.65167]],[[121.03899,14.64189],[121.03975,14.64073]],[[121.03978,14.64075],[121.03902,14.64191]],[[121.03261,14.65165],[121.03424,14.64917]],[[121.03424,14.64917],[121.03827,14.64299]],[[121.03831,14.64301],[121.03427,14.64919]],[[121.03827,14.64299],[121.03899,14.64189]],[[121.03902,14.64191],[121.03831,14.64301]],[[121.03198,14.65264],[121.03196,14.65266]],[[121.03259,14.65167],[121.03261,14.65165]],[[121.02912,14.55009],[121.02848,14.54957]],[[121.00445,14.53799],[121.00379,14.53791]],[[121.00485,14.53799],[121.00767,14.53835]],[[121.00813,14.53841],[121.01182,14.5389],[121.01362,14.53926]],[[121.00767,14.53835],[121.00813,14.53841]],[[121.00767,14.53839],[121.00445,14.53799]],[[121.00813,14.53844],[121.00767,14.53839]],[[121.01361,14.53929],[121.01477,14.53966]],[[121.01362,14.53926],[121.01479,14.53963]],[[121.01479,14.53963],[121.01746,14.54079]],[[121.01745,14.54081],[121.01477,14.53966]],[[121.01746,14.54079],[121.01892,14.54161],[121.0207,14.54299]],[[121.0207,14.54299],[121.02584,14.54729]],[[121.02627,14.54766],[121.02581,14.54733]],[[121.02584,14.54729],[121.02629,14.54763]],[[121.02629,14.54763],[121.02914,14.55007]],[[121.02914,14.55007],[121.02953,14.55039]],[[121.02951,14.55042],[121.02912,14.55009]],[[121.02953,14.55039],[121.03479,14.55479]],[[121.03475,14.55483],[121.02951,14.55042]],[[121.03479,14.55479],[121.03921,14.55854]],[[121.03919,14.55857],[121.03475,14.55483]],[[121.03921,14.55854],[121.04247,14.56128],[121.04374,14.56265],[121.04476,14.56442],[121.04532,14.56617]],[[121.04532,14.56617],[121.04643,14.5701]],[[121.0464,14.57011],[121.04529,14.56617]],[[121.04643,14.5701],[121.04698,14.57179],[121.04747,14.57271],[121.05068,14.57715]],[[121.05065,14.57717],[121.04742,14.57274],[121.04676,14.57133],[121.0464,14.57011]],[[121.05068,14.57715],[121.0513,14.57798]],[[121.05128,14.578],[121.05065,14.57717]],[[121.04828,14.62553],[121.05081,14.62003]],[[121.04831,14.62554],[121.0474,14.62753]],[[121.0474,14.62753],[121.047,14.62839]],[[121.04737,14.62752],[121.04828,14.62553]],[[121.00339,14.5378],[121.00485,14.53799]],[[121.00379,14.53791],[121.00188,14.53767]],[[121.047,14.62839],[121.045,14.63274],[121.04363,14.63485]],[[121.0436,14.63483],[121.04496,14.63272],[121.04697,14.62838]],[[121.03051,14.65485],[121.03109,14.65396]],[[121.03038,14.65506],[121.03051,14.65485]],[[121.03055,14.65488],[121.03042,14.65509]],[[121.03112,14.65398],[121.03055,14.65488]],[[121.00093,14.53747],[121.00189,14.5376]],[[121.00188,14.53767],[121.00093,14.53755]]]}},{"type":"Feature","properties":{"t":"line","line":"mrt7","s":"build"},"geometry":{"type":"MultiLineString","coordinates":[[[121.08184,14.67556],[121.08311,14.67781]],[[121.06878,14.66421],[121.07421,14.6678],[121.07674,14.66974],[121.07931,14.67223],[121.08184,14.67556]],[[121.08719,14.68785],[121.08736,14.69329],[121.08737,14.69693],[121.08726,14.69926],[121.08691,14.70051],[121.08604,14.70222],[121.08494,14.70348],[121.0837,14.70434]],[[121.08367,14.7043],[121.08467,14.70367],[121.08575,14.70256],[121.08674,14.70076],[121.08715,14.6995],[121.08726,14.69856],[121.0873,14.69329],[121.08713,14.68786]],[[121.06493,14.66173],[121.06206,14.65981]],[[121.03636,14.6543],[121.03351,14.65494]],[[121.04301,14.65277],[121.04535,14.65226]],[[121.04536,14.65231],[121.04302,14.65282]],[[121.05884,14.65764],[121.05161,14.65291],[121.05106,14.65272],[121.04691,14.65218],[121.04599,14.65217],[121.04536,14.65231]],[[121.07743,14.74198],[121.07773,14.74235],[121.07786,14.74275],[121.0779,14.74463],[121.07812,14.74521],[121.07863,14.74564],[121.08052,14.74632],[121.08195,14.74756],[121.08463,14.75144],[121.0848,14.75202],[121.08509,14.75565],[121.08585,14.75852],[121.08654,14.76028]],[[121.04535,14.65226],[121.04691,14.65211],[121.05145,14.65278],[121.05886,14.65761]],[[121.06497,14.66169],[121.06878,14.66421]],[[121.08307,14.67783],[121.08181,14.67558]],[[121.06875,14.66425],[121.06493,14.66173]],[[121.08654,14.76028],[121.08664,14.76078],[121.08651,14.76337],[121.0843,14.76705],[121.08411,14.76729],[121.08368,14.76754],[121.08141,14.76817]],[[121.05886,14.65761],[121.06209,14.65976]],[[121.08181,14.67558],[121.07927,14.67225],[121.07672,14.66976],[121.07418,14.66783],[121.06875,14.66425]],[[121.0814,14.76814],[121.08352,14.76756],[121.08396,14.76736],[121.08428,14.76703],[121.08648,14.76337],[121.08661,14.76073],[121.08651,14.76029]],[[121.08651,14.76029],[121.08582,14.75854],[121.08505,14.75566],[121.08477,14.75203],[121.0846,14.75146],[121.08191,14.74758],[121.0805,14.74635],[121.07863,14.74566],[121.0781,14.74523],[121.07785,14.74438],[121.07784,14.74275],[121.07741,14.74201]],[[121.06848,14.73549],[121.0693,14.73552],[121.0698,14.73571],[121.07132,14.73731],[121.07265,14.73803],[121.07431,14.73936],[121.07566,14.74109],[121.07608,14.74138],[121.07711,14.74175],[121.07743,14.74198]],[[121.08119,14.70499],[121.07964,14.70512],[121.07465,14.70521],[121.07077,14.7064],[121.07014,14.70651],[121.06531,14.70651],[121.06466,14.70671],[121.0642,14.70697],[121.06341,14.70778]],[[121.07741,14.74201],[121.07709,14.74179],[121.07606,14.74141],[121.07564,14.74112],[121.07429,14.73938],[121.07263,14.73806],[121.0713,14.73732],[121.06978,14.73575],[121.06929,14.73555],[121.06848,14.73552]],[[121.06334,14.70773],[121.06416,14.7069],[121.06463,14.70664],[121.0653,14.70647],[121.07014,14.70647],[121.07075,14.70636],[121.07465,14.70516],[121.07563,14.70507],[121.07963,14.70507],[121.08119,14.70495]],[[121.06206,14.65981],[121.05884,14.65764]],[[121.06209,14.65976],[121.06497,14.66169]],[[121.03874,14.65374],[121.04301,14.65277]],[[121.04302,14.65282],[121.03875,14.65378]],[[121.06848,14.73552],[121.06247,14.73541],[121.06165,14.73498],[121.06129,14.73446],[121.06118,14.73369],[121.06117,14.71068],[121.06121,14.71033],[121.0615,14.70994]],[[121.06156,14.70999],[121.06127,14.71036],[121.06121,14.71068],[121.06127,14.73421],[121.06141,14.73463],[121.06168,14.73495],[121.06248,14.73538],[121.06848,14.73549]],[[121.0615,14.70994],[121.06334,14.70773]],[[121.08713,14.68786],[121.08659,14.68595],[121.08307,14.67783]],[[121.08119,14.70495],[121.08217,14.70482],[121.08367,14.7043]],[[121.0837,14.70434],[121.08218,14.70488],[121.08119,14.70499]],[[121.06341,14.70778],[121.06156,14.70999]],[[121.08311,14.67781],[121.08665,14.68592],[121.08719,14.68785]],[[121.03875,14.65378],[121.03636,14.6543]],[[121.03636,14.65427],[121.03874,14.65374]],[[121.0335,14.6549],[121.03636,14.65427]],[[121.03218,14.65524],[121.03151,14.65538]],[[121.03124,14.65539],[121.03146,14.65534]],[[121.03216,14.65509],[121.03339,14.65481],[121.03421,14.65475]],[[121.03218,14.65519],[121.0335,14.6549]],[[121.03351,14.65494],[121.03218,14.65524]],[[121.02983,14.65461],[121.03003,14.65497],[121.0303,14.6552],[121.03124,14.65539]],[[121.02869,14.64966],[121.02983,14.65461]],[[121.02781,14.64579],[121.02869,14.64966]],[[121.0298,14.65463],[121.02865,14.64966]],[[121.02865,14.64966],[121.02777,14.6458]],[[121.03147,14.65539],[121.03107,14.65543],[121.03034,14.65526],[121.03006,14.65507],[121.0298,14.65463]],[[121.03151,14.65538],[121.03147,14.65539]],[[121.0315,14.65534],[121.03218,14.65519]],[[121.0317,14.65518],[121.03216,14.65509]],[[121.0825,14.74834],[121.08278,14.7487]],[[121.07876,14.77061],[121.0814,14.76814]],[[121.08141,14.76817],[121.07879,14.77064]],[[121.03146,14.65534],[121.0315,14.65534]]]}},{"type":"Feature","properties":{"t":"line","line":"nscr","s":"build"},"geometry":{"type":"MultiLineString","coordinates":[[[120.73866,14.95287],[120.7441,14.94983],[120.74562,14.94873],[120.74642,14.948],[120.74758,14.94678],[120.75168,14.94195],[120.75535,14.93755],[120.75718,14.93517]],[[120.95093,14.76145],[120.95061,14.7621]],[[120.97218,14.67775],[120.97214,14.67831]],[[120.76533,14.92088],[120.76601,14.91252],[120.76638,14.90894],[120.76673,14.9067],[120.76826,14.90461],[120.77126,14.90152]],[[120.96432,14.69572],[120.96036,14.70869],[120.96017,14.71016],[120.96037,14.71163],[120.96445,14.72621],[120.96456,14.72754],[120.96447,14.72833],[120.96377,14.73066]],[[120.77126,14.90152],[120.77198,14.90085]],[[120.8098,14.85915],[120.78685,14.88502],[120.78018,14.89209],[120.77867,14.89385],[120.77198,14.90085]],[[120.75857,14.9336],[120.75958,14.93258],[120.76222,14.92943],[120.76416,14.92648],[120.76468,14.92539],[120.76505,14.92424],[120.76518,14.92345],[120.76533,14.92088]],[[120.75718,14.93517],[120.75857,14.9336]],[[120.96374,14.73064],[120.96443,14.72833],[120.96452,14.72754],[120.96441,14.72622],[120.96096,14.71417],[120.96024,14.71122],[120.96014,14.71016],[120.96033,14.70868],[120.96429,14.69571]],[[120.95058,14.76208],[120.9509,14.76143]],[[120.81339,14.85492],[120.81495,14.85315],[120.81603,14.85217],[120.81721,14.85138],[120.81866,14.85073],[120.84498,14.8421],[120.85677,14.83946],[120.87994,14.83],[120.88111,14.82978],[120.88231,14.82978],[120.89545,14.83176],[120.8968,14.83169],[120.89812,14.83141],[120.89938,14.83092],[120.90055,14.83025],[120.90139,14.82958],[120.90593,14.82538],[120.92885,14.80404],[120.93015,14.80259],[120.93103,14.80121],[120.93516,14.79303],[120.95058,14.76208]],[[120.95061,14.7621],[120.93519,14.79305],[120.93105,14.80123],[120.93017,14.80261],[120.92886,14.80407],[120.90141,14.82961],[120.90057,14.83028],[120.8994,14.83096],[120.89813,14.83145],[120.8968,14.83173],[120.89544,14.83181],[120.8823,14.82983],[120.88111,14.82983],[120.87994,14.83005],[120.85678,14.8395],[120.845,14.84214],[120.81867,14.85077],[120.81725,14.85144],[120.81608,14.85223],[120.81522,14.853],[120.81347,14.85499]],[[120.97273,14.67034],[120.97218,14.67775]],[[120.98258,14.62271],[120.97783,14.62315]],[[120.96349,14.73132],[120.96374,14.73064]],[[120.9509,14.76143],[120.95756,14.74796],[120.96349,14.73132]],[[120.96353,14.73134],[120.9576,14.74797],[120.95093,14.76145]],[[120.96377,14.73066],[120.96353,14.73134]],[[120.97782,14.62306],[120.98111,14.62275],[120.98255,14.62248]],[[121.15144,14.2196],[121.15289,14.21688],[121.15337,14.21571],[121.1567,14.20945]],[[121.15674,14.20947],[121.1534,14.21573],[121.15293,14.2169],[121.15147,14.21961]],[[121.15101,14.2204],[121.15144,14.2196]],[[121.15147,14.21961],[121.15105,14.22041]],[[121.09914,14.31546],[121.11763,14.29919],[121.11888,14.29767],[121.12519,14.28235],[121.12569,14.28138],[121.12676,14.2785],[121.14573,14.23207],[121.14627,14.23111],[121.14959,14.22284],[121.15101,14.2204]],[[121.15105,14.22041],[121.14962,14.22286],[121.1463,14.23113],[121.14577,14.23209],[121.1268,14.27852],[121.12572,14.2814],[121.12523,14.28237],[121.11891,14.29769],[121.11766,14.29922],[121.09917,14.31549]],[[121.05183,14.36806],[121.04807,14.37499],[121.0477,14.37595],[121.04757,14.3768],[121.04776,14.41796],[121.04767,14.41933],[121.04768,14.4241],[121.04972,14.442],[121.0512,14.44666],[121.05202,14.45228],[121.05154,14.45698],[121.0524,14.46463],[121.05241,14.46546],[121.05222,14.46635],[121.05114,14.46938],[121.05093,14.4703],[121.05107,14.47567],[121.05078,14.47724],[121.04736,14.4846],[121.04488,14.48943],[121.04437,14.49019]],[[121.04423,14.49012],[121.04769,14.48382],[121.05074,14.47723],[121.05103,14.47567],[121.0509,14.47029],[121.0511,14.46937],[121.05219,14.46634],[121.05237,14.46545],[121.05237,14.46463],[121.0515,14.45698],[121.05199,14.45228],[121.05117,14.44666],[121.04969,14.44201],[121.04764,14.4241],[121.04763,14.41934],[121.04772,14.41796],[121.04751,14.37709],[121.04766,14.37594],[121.04803,14.37497],[121.0518,14.36805]],[[121.04802,14.42681],[121.0498,14.44266]],[[121.04799,14.42658],[121.04802,14.42681]],[[121.05397,14.36427],[121.0541,14.36403]],[[121.05114,14.36944],[121.05397,14.36427]],[[121.0541,14.36403],[121.05555,14.36134]],[[121.05618,14.36019],[121.05653,14.35976],[121.05749,14.358],[121.05763,14.35751]],[[121.04769,14.415],[121.04786,14.41599],[121.04788,14.41796],[121.0477,14.41879]],[[121.04765,14.41532],[121.04758,14.41599],[121.04767,14.41879]],[[120.98789,14.62143],[120.98855,14.62074]],[[120.98211,14.62256],[120.98307,14.62254]],[[120.98326,14.62253],[120.98213,14.62275]],[[120.99805,14.61103],[120.9983,14.61058],[121.00007,14.60872],[121.0008,14.60814]],[[120.98574,14.62217],[120.98705,14.62189],[120.98807,14.62122],[121.0,14.60863],[121.00476,14.6038],[121.00556,14.6033],[121.00758,14.60263],[121.00835,14.60216]],[[121.00837,14.60219],[121.00759,14.60266],[121.00558,14.60333],[121.00479,14.60382],[121.00001,14.60867],[120.98771,14.62168],[120.98686,14.62221],[120.98604,14.62237]],[[120.99201,14.61734],[120.99309,14.61604],[120.99411,14.61497],[120.99447,14.61474]],[[121.00419,14.58494],[121.00236,14.58279]],[[121.00239,14.58276],[121.00423,14.58492]],[[121.00481,14.58566],[121.00419,14.58494]],[[121.0049,14.58577],[121.00481,14.58566]],[[121.00483,14.58563],[121.00492,14.58573]],[[121.00423,14.58492],[121.00483,14.58563]],[[121.00492,14.58573],[121.00755,14.58882]],[[121.00752,14.58884],[121.0049,14.58577]],[[121.00935,14.59099],[121.00752,14.58884]],[[121.00755,14.58882],[121.00938,14.59097]],[[121.00236,14.58279],[121.00193,14.58246],[121.00039,14.58066],[121.00014,14.58018]],[[121.00017,14.58015],[121.00061,14.58048],[121.00214,14.58229],[121.00239,14.58276]],[[121.01283,14.59508],[121.01021,14.592]],[[121.01023,14.59197],[121.01286,14.59506]],[[121.00938,14.59097],[121.01023,14.59197]],[[120.99868,14.5784],[121.00239,14.58276]],[[121.00236,14.58279],[120.99865,14.57842]],[[121.01021,14.592],[121.00935,14.59099]],[[121.01195,14.59919],[121.01281,14.59833],[121.01319,14.59774],[121.01338,14.59719],[121.01332,14.59599],[121.01283,14.59508]],[[121.01286,14.59506],[121.01336,14.59598],[121.01346,14.5966],[121.01342,14.5972],[121.01322,14.59776],[121.01284,14.59835],[121.01198,14.59922]],[[120.95569,14.7519],[120.95521,14.75317],[120.95389,14.75586],[120.95325,14.75686]],[[120.95321,14.75684],[120.95473,14.75355],[120.95566,14.75189]],[[120.95573,14.75182],[120.95589,14.75137]],[[120.95569,14.75181],[120.95593,14.75139]],[[121.15136,14.21957],[121.15093,14.22037]],[[121.14617,14.23107],[121.14535,14.23342],[121.14403,14.23642]],[[121.15093,14.22037],[121.15013,14.22169]],[[121.15331,14.2157],[121.15281,14.21685],[121.15136,14.21957]],[[121.05222,14.36735],[121.05183,14.36806]],[[121.05219,14.36733],[121.05367,14.36463]],[[121.0518,14.36805],[121.05219,14.36733]],[[121.0537,14.36465],[121.05222,14.36735]],[[121.05414,14.36385],[121.0537,14.36465]],[[121.0819,14.33069],[121.06362,14.34683],[121.06297,14.34769],[121.05414,14.36385]],[[121.05367,14.36463],[121.0541,14.36383]],[[121.0541,14.36383],[121.06293,14.34767],[121.06359,14.3468],[121.08187,14.33066]],[[121.12686,14.27853],[121.12658,14.2796],[121.12579,14.28153],[121.12529,14.28239]],[[121.10111,14.31383],[121.10176,14.31343],[121.10342,14.31197],[121.10404,14.31123]],[[121.10459,14.31067],[121.10416,14.3111]],[[121.1052,14.31018],[121.10473,14.31055]],[[121.10106,14.31378],[121.10169,14.31306],[121.1032,14.31173],[121.104,14.31119]],[[121.10402,14.31122],[121.10339,14.31193],[121.10173,14.31339],[121.10109,14.3138]],[[121.08235,14.33024],[121.09853,14.31601]],[[121.08187,14.33066],[121.08235,14.33024]],[[121.08238,14.33027],[121.0819,14.33069]],[[121.09855,14.31603],[121.08238,14.33027]],[[121.09853,14.31601],[121.09914,14.31546]],[[121.09917,14.31549],[121.09855,14.31603]],[[121.02614,14.52397],[121.02866,14.51917]],[[121.02617,14.52398],[121.02431,14.52734]],[[121.02869,14.51919],[121.02617,14.52398]],[[121.02431,14.52734],[121.02296,14.52991]],[[121.02286,14.52986],[121.02614,14.52397]],[[121.04294,14.49252],[121.04423,14.49012]],[[121.02866,14.51917],[121.04294,14.49252]],[[121.04437,14.49019],[121.04308,14.49259]],[[121.04308,14.49259],[121.02869,14.51919]],[[121.00877,14.60181],[121.01195,14.59919]],[[121.00835,14.60216],[121.00877,14.60181]],[[121.00879,14.60184],[121.00837,14.60219]],[[121.01198,14.59922],[121.00879,14.60184]],[[120.98315,14.62242],[120.98574,14.62217]],[[120.98255,14.62248],[120.98315,14.62242]],[[120.98326,14.62253],[120.9863,14.62221],[120.9871,14.62197],[120.98789,14.62143]],[[120.98256,14.62259],[120.98326,14.62253]],[[120.98318,14.62265],[120.98258,14.62271]],[[120.98604,14.62237],[120.98318,14.62265]],[[120.98789,14.62143],[120.98833,14.62104]],[[120.75715,14.93515],[120.75532,14.93752],[120.74948,14.94449],[120.74638,14.94797],[120.74559,14.9487],[120.74407,14.94979],[120.73864,14.95284]],[[120.75854,14.93357],[120.75715,14.93515]],[[120.76529,14.92088],[120.76501,14.92423],[120.76464,14.92537],[120.76412,14.92646],[120.76219,14.9294],[120.75954,14.93254],[120.75854,14.93357]],[[120.77123,14.9015],[120.76823,14.90458],[120.76669,14.90669],[120.76634,14.90893],[120.76597,14.91252],[120.76529,14.92088]],[[120.77196,14.90083],[120.77123,14.9015]],[[120.77196,14.90083],[120.77864,14.89383],[120.78014,14.89206],[120.78682,14.88499],[120.80972,14.85909]],[[120.96448,14.72827],[120.96461,14.72768]],[[120.96461,14.72768],[120.9644,14.72568],[120.96274,14.71974]],[[120.97782,14.62311],[120.98256,14.62259]],[[120.96429,14.69571],[120.96492,14.69372]],[[120.96495,14.69373],[120.96432,14.69572]],[[121.0156,14.54339],[121.01431,14.54576]],[[121.01435,14.54578],[121.01564,14.54341]],[[120.81347,14.85499],[120.8098,14.85915]],[[120.80972,14.85909],[120.81339,14.85492]],[[120.77171,14.90109],[120.76977,14.90321],[120.76888,14.90393]],[[120.77168,14.90107],[120.7707,14.90185],[120.76885,14.9039]]]}},{"type":"Feature","properties":{"t":"line","line":"subway","s":"build"},"geometry":{"type":"MultiLineString","coordinates":[[[121.03799,14.64416],[121.03574,14.64763],[121.03456,14.64909],[121.03428,14.64987],[121.03431,14.65064],[121.03535,14.65401],[121.03677,14.65992],[121.03691,14.66103],[121.0369,14.66215],[121.03659,14.66379],[121.03593,14.66534],[121.03515,14.6665],[121.03303,14.66897],[121.03254,14.66992],[121.03229,14.67076],[121.03189,14.68373],[121.03181,14.68496],[121.03164,14.68568],[121.03121,14.68659],[121.03075,14.68722],[121.02619,14.69157],[121.02533,14.69202],[121.02394,14.69226],[121.02336,14.69263],[121.01685,14.69967],[121.01503,14.70326],[121.01427,14.70545],[121.01362,14.70938]],[[121.03799,14.64416],[121.03766,14.64497],[121.03585,14.6477],[121.03467,14.64916],[121.03441,14.64989],[121.03444,14.65061],[121.03548,14.65398],[121.0369,14.65986],[121.03704,14.66091],[121.03705,14.66197],[121.03679,14.66355],[121.03611,14.66527],[121.03521,14.66659],[121.03322,14.66885],[121.03272,14.66976],[121.03246,14.67057],[121.03236,14.6712],[121.032,14.68374],[121.03188,14.68515],[121.03173,14.6857],[121.03119,14.68683],[121.03036,14.68781],[121.02637,14.69155],[121.0255,14.69206],[121.02395,14.69233],[121.02339,14.69266],[121.01689,14.6997],[121.01507,14.70328],[121.01431,14.70546],[121.01367,14.70939]],[[121.043,14.49255],[121.04428,14.49015]],[[121.04431,14.49017],[121.04303,14.49256]],[[121.04428,14.49015],[121.04721,14.48473]],[[121.04132,14.49575],[121.04114,14.49607]],[[121.04129,14.49573],[121.043,14.49255]],[[121.04303,14.49256],[121.04132,14.49575]],[[121.04111,14.49606],[121.04129,14.49573]],[[121.04724,14.48475],[121.04431,14.49017]],[[121.02281,14.52844],[121.02118,14.52808],[121.01433,14.52775],[121.01359,14.52759],[121.01267,14.52702],[121.01222,14.52645],[121.01187,14.52561],[121.01176,14.52464],[121.01198,14.52361],[121.01261,14.5227],[121.01503,14.52037]],[[121.04111,14.49606],[121.03867,14.50038],[121.03134,14.51405],[121.0289,14.51657],[121.02494,14.5204],[121.02414,14.52112],[121.02217,14.52251],[121.02161,14.52333],[121.02131,14.52436],[121.02123,14.5253],[121.02141,14.52634],[121.02174,14.52722],[121.02219,14.52791],[121.02281,14.52844],[121.03534,14.53452],[121.04348,14.53807],[121.0447,14.5387],[121.04626,14.53995],[121.04685,14.54071],[121.0473,14.54171],[121.04781,14.54333],[121.04814,14.54387],[121.04866,14.54442],[121.04943,14.54501],[121.05029,14.54542],[121.05275,14.54594],[121.05355,14.54656],[121.05391,14.54715],[121.05557,14.55206],[121.05545,14.55261],[121.05488,14.55369],[121.05476,14.55427],[121.05483,14.55532],[121.05581,14.55847],[121.06011,14.57044],[121.0602,14.57129],[121.06008,14.57256],[121.06014,14.57349],[121.06061,14.57439],[121.06339,14.57757],[121.06363,14.57806],[121.06378,14.58258],[121.0641,14.58395],[121.06413,14.58815],[121.06426,14.58913],[121.06464,14.59027],[121.06499,14.59076],[121.06907,14.59424],[121.06952,14.59508],[121.06979,14.59609],[121.06987,14.59715],[121.06979,14.59819],[121.06904,14.60191],[121.07014,14.60498],[121.07056,14.60808],[121.07053,14.609],[121.07033,14.61005],[121.06864,14.61623],[121.06761,14.62134],[121.06712,14.62328],[121.06632,14.62469],[121.05978,14.63189],[121.0561,14.63567],[121.05543,14.63593],[121.05249,14.63642],[121.04483,14.63808],[121.04165,14.63858],[121.04106,14.63909],[121.03799,14.64416]]]}},{"type":"Feature","properties":{"t":"stn","n":"Pacita Main Gate","line":"nscr","s":"build"},"geometry":{"type":"Point","coordinates":[121.06366,14.34686]}},{"type":"Feature","properties":{"t":"stn","n":"Santa Rosa","line":"nscr","s":"build"},"geometry":{"type":"Point","coordinates":[121.1098,14.30619]}},{"type":"Feature","properties":{"t":"stn","n":"Cabuyao","line":"nscr","s":"build"},"geometry":{"type":"Point","coordinates":[121.12616,14.27996]}},{"type":"Feature","properties":{"t":"stn","n":"FTI","line":"nscr","s":"build"},"geometry":{"type":"Point","coordinates":[121.03556,14.5064]}},{"type":"Feature","properties":{"t":"stn","n":"Bicutan","line":"subway","s":"build"},"geometry":{"type":"Point","coordinates":[121.04544,14.48803]}},{"type":"Feature","properties":{"t":"stn","n":"Paco","line":"nscr","s":"build"},"geometry":{"type":"Point","coordinates":[120.99917,14.57904]}},{"type":"Feature","properties":{"t":"stn","n":"Sucat","line":"nscr","s":"build"},"geometry":{"type":"Point","coordinates":[121.05093,14.45233]}},{"type":"Feature","properties":{"t":"stn","n":"Pandacan","line":"nscr","s":"build"},"geometry":{"type":"Point","coordinates":[121.00894,14.59049]}},{"type":"Feature","properties":{"t":"stn","n":"Santa Mesa","line":"nscr","s":"build"},"geometry":{"type":"Point","coordinates":[121.01034,14.60075]}},{"type":"Feature","properties":{"t":"stn","n":"Nichols","line":"nscr","s":"build"},"geometry":{"type":"Point","coordinates":[121.0263,14.52351]}},{"type":"Feature","properties":{"t":"stn","n":"Blumentritt","line":"nscr","s":"build"},"geometry":{"type":"Point","coordinates":[120.98346,14.62263]}},{"type":"Feature","properties":{"t":"stn","n":"Tandang Sora","line":"subway","s":"build"},"geometry":{"type":"Point","coordinates":[121.0322,14.67471]}},{"type":"Feature","properties":{"t":"stn","n":"Katipunan","line":"lrt2","s":"run"},"geometry":{"type":"Point","coordinates":[121.07277,14.63106]}},{"type":"Feature","properties":{"t":"stn","n":"Sacred Heart","line":"mrt7","s":"build"},"geometry":{"type":"Point","coordinates":[121.08382,14.75023]}},{"type":"Feature","properties":{"t":"stn","n":"Bonifacio Global City","line":"subway","s":"build"},"geometry":{"type":"Point","coordinates":[121.0546,14.54945]}},{"type":"Feature","properties":{"t":"stn","n":"Camp Aguinaldo","line":"subway","s":"build"},"geometry":{"type":"Point","coordinates":[121.06962,14.61269]}},{"type":"Feature","properties":{"t":"stn","n":"Governor Pascual","line":"nscr","s":"build"},"geometry":{"type":"Point","coordinates":[120.97273,14.67034]}},{"type":"Feature","properties":{"t":"stn","n":"Laon Laan","line":"nscr","s":"build"},"geometry":{"type":"Point","coordinates":[120.99162,14.61762]}},{"type":"Feature","properties":{"t":"stn","n":"Alabang","line":"nscr","s":"build"},"geometry":{"type":"Point","coordinates":[121.04759,14.4171]}},{"type":"Feature","properties":{"t":"stn","n":"Cubao","line":"mrt3","s":"run"},"geometry":{"type":"Point","coordinates":[121.05107,14.61948]}},{"type":"Feature","properties":{"t":"stn","n":"Shaw Boulevard","line":"mrt3","s":"run"},"geometry":{"type":"Point","coordinates":[121.05348,14.58106]}},{"type":"Feature","properties":{"t":"stn","n":"NAIA Terminal 3","line":"subway","s":"build"},"geometry":{"type":"Point","coordinates":[121.01503,14.52037]}},{"type":"Feature","properties":{"t":"stn","n":"East Avenue","line":"subway","s":"build"},"geometry":{"type":"Point","coordinates":[121.0514,14.63666]}},{"type":"Feature","properties":{"t":"stn","n":"Anonas","line":"subway","s":"build"},"geometry":{"type":"Point","coordinates":[121.06389,14.62733]}},{"type":"Feature","properties":{"t":"stn","n":"Kalayaan Avenue","line":"subway","s":"build"},"geometry":{"type":"Point","coordinates":[121.05567,14.55799]}},{"type":"Feature","properties":{"t":"stn","n":"Lawton Avenue","line":"subway","s":"build"},"geometry":{"type":"Point","coordinates":[121.04019,14.53664]}},{"type":"Feature","properties":{"t":"stn","n":"Ortigas","line":"subway","s":"build"},"geometry":{"type":"Point","coordinates":[121.06411,14.58535]}},{"type":"Feature","properties":{"t":"stn","n":"Shaw Boulevard","line":"subway","s":"build"},"geometry":{"type":"Point","coordinates":[121.06225,14.57627]}},{"type":"Feature","properties":{"t":"stn","n":"Senate-DepEd","line":"subway","s":"build"},"geometry":{"type":"Point","coordinates":[121.02349,14.52879]}},{"type":"Feature","properties":{"t":"stn","n":"Quirino Highway","line":"subway","s":"build"},"geometry":{"type":"Point","coordinates":[121.02858,14.68939]}},{"type":"Feature","properties":{"t":"stn","n":"North Avenue","line":"subway","s":"build"},"geometry":{"type":"Point","coordinates":[121.03629,14.65763]}},{"type":"Feature","properties":{"t":"stn","n":"Quezon Avenue","line":"subway","s":"build"},"geometry":{"type":"Point","coordinates":[121.03697,14.6459]}},{"type":"Feature","properties":{"t":"stn","n":"Quezon Memorial Circle","line":"mrt7","s":"build"},"geometry":{"type":"Point","coordinates":[121.04757,14.6522]}},{"type":"Feature","properties":{"t":"stn","n":"University Avenue","line":"mrt7","s":"build"},"geometry":{"type":"Point","coordinates":[121.05499,14.65507]}},{"type":"Feature","properties":{"t":"stn","n":"Tandang Sora","line":"mrt7","s":"build"},"geometry":{"type":"Point","coordinates":[121.0675,14.66335]}},{"type":"Feature","properties":{"t":"stn","n":"Don Antonio","line":"mrt7","s":"build"},"geometry":{"type":"Point","coordinates":[121.08268,14.67704]}},{"type":"Feature","properties":{"t":"stn","n":"Batasan","line":"mrt7","s":"build"},"geometry":{"type":"Point","coordinates":[121.08631,14.68512]}},{"type":"Feature","properties":{"t":"stn","n":"Manggahan","line":"mrt7","s":"build"},"geometry":{"type":"Point","coordinates":[121.08736,14.69752]}},{"type":"Feature","properties":{"t":"stn","n":"Doña Carmen","line":"mrt7","s":"build"},"geometry":{"type":"Point","coordinates":[121.07842,14.70513]}},{"type":"Feature","properties":{"t":"stn","n":"Regalado Avenue","line":"mrt7","s":"build"},"geometry":{"type":"Point","coordinates":[121.06792,14.70651]}},{"type":"Feature","properties":{"t":"stn","n":"Mindanao Avenue","line":"mrt7","s":"build"},"geometry":{"type":"Point","coordinates":[121.06122,14.73307]}},{"type":"Feature","properties":{"t":"stn","n":"Quirino","line":"mrt7","s":"build"},"geometry":{"type":"Point","coordinates":[121.06658,14.73546]}},{"type":"Feature","properties":{"t":"stn","n":"East Valenzuela","line":"subway","s":"build"},"geometry":{"type":"Point","coordinates":[121.01379,14.70836]}},{"type":"Feature","properties":{"t":"stn","n":"Ayala","line":"mrt3","s":"run"},"geometry":{"type":"Point","coordinates":[121.02792,14.54919]}},{"type":"Feature","properties":{"t":"stn","n":"Legarda","line":"lrt2","s":"run"},"geometry":{"type":"Point","coordinates":[120.99257,14.60088]}},{"type":"Feature","properties":{"t":"stn","n":"GMA Kamuning","line":"mrt3","s":"run"},"geometry":{"type":"Point","coordinates":[121.04329,14.63535]}},{"type":"Feature","properties":{"t":"stn","n":"Santolan","line":"lrt2","s":"run"},"geometry":{"type":"Point","coordinates":[121.08596,14.62211]}},{"type":"Feature","properties":{"t":"stn","n":"Ortigas","line":"mrt3","s":"run"},"geometry":{"type":"Point","coordinates":[121.05672,14.58786]}},{"type":"Feature","properties":{"t":"stn","n":"Boni","line":"mrt3","s":"run"},"geometry":{"type":"Point","coordinates":[121.04819,14.57377]}},{"type":"Feature","properties":{"t":"stn","n":"Guadalupe","line":"mrt3","s":"run"},"geometry":{"type":"Point","coordinates":[121.04554,14.56711]}},{"type":"Feature","properties":{"t":"stn","n":"Santolan-Annapolis","line":"mrt3","s":"run"},"geometry":{"type":"Point","coordinates":[121.05652,14.60786]}},{"type":"Feature","properties":{"t":"stn","n":"Buendia","line":"mrt3","s":"run"},"geometry":{"type":"Point","coordinates":[121.03422,14.55437]}},{"type":"Feature","properties":{"t":"stn","n":"Doroteo Jose","line":"lrt1","s":"run"},"geometry":{"type":"Point","coordinates":[120.98205,14.60531]}},{"type":"Feature","properties":{"t":"stn","n":"Betty Go-Belmonte","line":"lrt2","s":"run"},"geometry":{"type":"Point","coordinates":[121.04271,14.6186]}},{"type":"Feature","properties":{"t":"stn","n":"Quezon Avenue","line":"mrt3","s":"run"},"geometry":{"type":"Point","coordinates":[121.0386,14.64251]}},{"type":"Feature","properties":{"t":"stn","n":"Recto","line":"lrt2","s":"run"},"geometry":{"type":"Point","coordinates":[120.98337,14.60351]}},{"type":"Feature","properties":{"t":"stn","n":"Central Terminal","line":"lrt1","s":"run"},"geometry":{"type":"Point","coordinates":[120.98162,14.5928]}},{"type":"Feature","properties":{"t":"stn","n":"Araneta Center - Cubao","line":"lrt2","s":"run"},"geometry":{"type":"Point","coordinates":[121.05312,14.62286]}},{"type":"Feature","properties":{"t":"stn","n":"Bambang","line":"lrt1","s":"run"},"geometry":{"type":"Point","coordinates":[120.98249,14.61113]}},{"type":"Feature","properties":{"t":"stn","n":"J. Ruiz","line":"lrt2","s":"run"},"geometry":{"type":"Point","coordinates":[121.0261,14.61057]}},{"type":"Feature","properties":{"t":"stn","n":"Pureza","line":"lrt2","s":"run"},"geometry":{"type":"Point","coordinates":[121.00509,14.60168]}},{"type":"Feature","properties":{"t":"stn","n":"Gilmore","line":"lrt2","s":"run"},"geometry":{"type":"Point","coordinates":[121.03415,14.61354]}},{"type":"Feature","properties":{"t":"stn","n":"Anonas","line":"lrt2","s":"run"},"geometry":{"type":"Point","coordinates":[121.06472,14.62799]}},{"type":"Feature","properties":{"t":"stn","n":"Taft Avenue","line":"mrt3","s":"run"},"geometry":{"type":"Point","coordinates":[121.00182,14.53756]}},{"type":"Feature","properties":{"t":"stn","n":"Magallanes","line":"mrt3","s":"run"},"geometry":{"type":"Point","coordinates":[121.01939,14.54194]}},{"type":"Feature","properties":{"t":"stn","n":"EDSA","line":"lrt1","s":"run"},"geometry":{"type":"Point","coordinates":[121.00062,14.53884]}},{"type":"Feature","properties":{"t":"stn","n":"North Avenue","line":"mrt3","s":"run"},"geometry":{"type":"Point","coordinates":[121.0323,14.65217]}},{"type":"Feature","properties":{"t":"stn","n":"Tayuman","line":"lrt1","s":"run"},"geometry":{"type":"Point","coordinates":[120.98272,14.61672]}},{"type":"Feature","properties":{"t":"stn","n":"Blumentritt","line":"lrt1","s":"run"},"geometry":{"type":"Point","coordinates":[120.98289,14.62278]}},{"type":"Feature","properties":{"t":"stn","n":"Abad Santos","line":"lrt1","s":"run"},"geometry":{"type":"Point","coordinates":[120.98141,14.63061]}},{"type":"Feature","properties":{"t":"stn","n":"5th Avenue","line":"lrt1","s":"run"},"geometry":{"type":"Point","coordinates":[120.98354,14.64441]}},{"type":"Feature","properties":{"t":"stn","n":"Yamaha Monumento","line":"lrt1","s":"run"},"geometry":{"type":"Point","coordinates":[120.98387,14.65431]}},{"type":"Feature","properties":{"t":"stn","n":"R. Papa","line":"lrt1","s":"run"},"geometry":{"type":"Point","coordinates":[120.98228,14.63601]}},{"type":"Feature","properties":{"t":"stn","n":"Carriedo","line":"lrt1","s":"run"},"geometry":{"type":"Point","coordinates":[120.98136,14.59917]}},{"type":"Feature","properties":{"t":"stn","n":"Quirino","line":"lrt1","s":"run"},"geometry":{"type":"Point","coordinates":[120.99153,14.57029]}},{"type":"Feature","properties":{"t":"stn","n":"Vito Cruz","line":"lrt1","s":"run"},"geometry":{"type":"Point","coordinates":[120.99475,14.56347]}},{"type":"Feature","properties":{"t":"stn","n":"Pedro Gil","line":"lrt1","s":"run"},"geometry":{"type":"Point","coordinates":[120.98802,14.57658]}},{"type":"Feature","properties":{"t":"stn","n":"Gil Puyat","line":"lrt1","s":"run"},"geometry":{"type":"Point","coordinates":[120.99717,14.55418]}},{"type":"Feature","properties":{"t":"stn","n":"Libertad","line":"lrt1","s":"run"},"geometry":{"type":"Point","coordinates":[120.99864,14.54775]}},{"type":"Feature","properties":{"t":"stn","n":"Baclaran","line":"lrt1","s":"run"},"geometry":{"type":"Point","coordinates":[120.9984,14.53429]}},{"type":"Feature","properties":{"t":"stn","n":"Mamatid","line":"nscr","s":"build"},"geometry":{"type":"Point","coordinates":[121.1456,14.23232]}},{"type":"Feature","properties":{"t":"stn","n":"Balintawak","line":"lrt1","s":"run"},"geometry":{"type":"Point","coordinates":[121.0039,14.65742]}},{"type":"Feature","properties":{"t":"stn","n":"Fernando Poe Jr.","line":"lrt1","s":"run"},"geometry":{"type":"Point","coordinates":[121.02114,14.65756]}},{"type":"Feature","properties":{"t":"stn","n":"Marikina-Pasig","line":"lrt2","s":"run"},"geometry":{"type":"Point","coordinates":[121.10065,14.62044]}},{"type":"Feature","properties":{"t":"stn","n":"North Triangle Common","line":"lrt1","s":"build"},"geometry":{"type":"Point","coordinates":[121.03109,14.655]}},{"type":"Feature","properties":{"t":"stn","n":"Antipolo","line":"lrt2","s":"run"},"geometry":{"type":"Point","coordinates":[121.12131,14.62477]}},{"type":"Feature","properties":{"t":"stn","n":"PITX","line":"lrt1","s":"run"},"geometry":{"type":"Point","coordinates":[120.99127,14.5083]}},{"type":"Feature","properties":{"t":"stn","n":"San Pedro","line":"nscr","s":"build"},"geometry":{"type":"Point","coordinates":[121.05537,14.3615]}},{"type":"Feature","properties":{"t":"stn","n":"MIA Road","line":"lrt1","s":"run"},"geometry":{"type":"Point","coordinates":[120.99299,14.51843]}},{"type":"Feature","properties":{"t":"stn","n":"Ninoy Aquino Avenue","line":"lrt1","s":"run"},"geometry":{"type":"Point","coordinates":[120.99437,14.49891]}},{"type":"Feature","properties":{"t":"stn","n":"Muntinlupa","line":"nscr","s":"build"},"geometry":{"type":"Point","coordinates":[121.04751,14.3895]}},{"type":"Feature","properties":{"t":"stn","n":"España","line":"nscr","s":"build"},"geometry":{"type":"Point","coordinates":[120.99684,14.61225]}},{"type":"Feature","properties":{"t":"stn","n":"Marilao","line":"nscr","s":"build"},"geometry":{"type":"Point","coordinates":[120.95446,14.75441]}},{"type":"Feature","properties":{"t":"stn","n":"Valenzuela","line":"nscr","s":"build"},"geometry":{"type":"Point","coordinates":[120.96133,14.71523]}},{"type":"Feature","properties":{"t":"stn","n":"Malolos","line":"nscr","s":"build"},"geometry":{"type":"Point","coordinates":[120.81343,14.85496]}},{"type":"Feature","properties":{"t":"stn","n":"Guiguinto","line":"nscr","s":"build"},"geometry":{"type":"Point","coordinates":[120.8675,14.8351]}},{"type":"Feature","properties":{"t":"stn","n":"Balagtas","line":"nscr","s":"build"},"geometry":{"type":"Point","coordinates":[120.9068,14.82459]}},{"type":"Feature","properties":{"t":"stn","n":"Bocaue","line":"nscr","s":"build"},"geometry":{"type":"Point","coordinates":[120.93221,14.79889]}},{"type":"Feature","properties":{"t":"stn","n":"Redemptorist–Aseana","line":"lrt1","s":"run"},"geometry":{"type":"Point","coordinates":[120.99294,14.53028]}},{"type":"Feature","properties":{"t":"stn","n":"Dr. Santos","line":"lrt1","s":"run"},"geometry":{"type":"Point","coordinates":[120.98957,14.48523]}},{"type":"Feature","properties":{"t":"stn","n":"Meycauayan","line":"nscr","s":"build"},"geometry":{"type":"Point","coordinates":[120.96056,14.73965]}},{"type":"Feature","properties":{"t":"stn","n":"Calumpit","line":"nscr","s":"build"},"geometry":{"type":"Point","coordinates":[120.77019,14.90258]}}]}